{"type":"FeatureCollection","crs":{"type":"name","properties":{"name":"EPSG:4326"}},"features":[{"type":"Feature","geometry":{"type":"Point","coordinates":[-8.3836610592648526,39.462177413182985]},"properties":{"albufeira":"Almourol (prevista)","lagua":"RIO TEJO","bacia":"TEJO","distrito":"SANTARÉM","concelho":"VILA NOVA DA BARQUINHA","longdd":-8.3836672360000009,"latdd":39.462164210999994,"ano_ifunc":0,"tipo_barra":"Gravidade de betão","alt_barrag":0,"supinundnp":1800,"rhidro_cod":" "}},{"type":"Feature","geometry":{"type":"Point","coordinates":[-7.4953354523041336,38.197275629763844]},"properties":{"albufeira":"Alqueva","lagua":"RIO GUADIANA","bacia":"GUADIANA","distrito":"BEJA","concelho":"MOURA","longdd":-7.4953387170000001,"latdd":38.197294284000002,"ano_ifunc":2002,"tipo_barra":"Abóboda","alt_barrag":96,"supinundnp":25000,"rhidro_cod":"24M/07A"}},{"type":"Feature","geometry":{"type":"Point","coordinates":[-7.8462220998791707,40.189806578998059]},"properties":{"albufeira":"Alto Ceira","lagua":"RIO CEIRA","bacia":"MONDEGO","distrito":"COIMBRA","concelho":"PAMPILHOSA DA SERRA","longdd":-7.8462294199999993,"latdd":40.189794343999999,"ano_ifunc":1949,"tipo_barra":"Abóboda","alt_barrag":33.5,"supinundnp":110.8,"rhidro_cod":"12J/01AE"}},{"type":"Feature","geometry":{"type":"Point","coordinates":[-7.8776871720819628,41.802742295540803]},"properties":{"albufeira":"Alto Cávado","lagua":"RIO CÁVADO","bacia":"CÁVADO/RIBEIRAS COSTEIRAS","distrito":"VILA REAL","concelho":"MONTALEGRE","longdd":-7.877669118,"latdd":41.802763462000001,"ano_ifunc":1964,"tipo_barra":"Gravidade de betão","alt_barrag":29,"supinundnp":50,"rhidro_cod":"03J/02AE"}},{"type":"Feature","geometry":{"type":"Point","coordinates":[-8.2027194621855184,41.872185659938616]},"properties":{"albufeira":"Alto Lindoso","lagua":"RIO LIMA","bacia":"LIMA","distrito":"VIANA DO CASTELO","concelho":"ARCOS DE VALDEVEZ","longdd":-8.2027103110000006,"latdd":41.872214165999999,"ano_ifunc":1992,"tipo_barra":"Arco Abóboda","alt_barrag":110,"supinundnp":1072,"rhidro_cod":"02H/01A"}},{"type":"Feature","geometry":{"type":"Point","coordinates":[-7.8540225802910024,41.7378393934464]},"properties":{"albufeira":"Alto Rabagão","lagua":"RIO RABAGÃO","bacia":"CÁVADO/RIBEIRAS COSTEIRAS","distrito":"VILA REAL","concelho":"MONTALEGRE","longdd":-7.8540050650000008,"latdd":41.737857862999995,"ano_ifunc":1964,"tipo_barra":"Abóboda","alt_barrag":94,"supinundnp":2212,"rhidro_cod":"03J/03A"}},{"type":"Feature","geometry":{"type":"Point","coordinates":[-7.7319152483543832,41.573316006082209]},"properties":{"albufeira":"Alto Tâmega (prevista)","lagua":"RIO TÂMEGA","bacia":"DOURO","distrito":"VILA REAL","concelho":"RIBEIRA DE PENA","longdd":-7.7318999789999996,"latdd":41.573328082000003,"ano_ifunc":0,"tipo_barra":"Arco Abóboda","alt_barrag":93,"supinundnp":0,"rhidro_cod":" "}},{"type":"Feature","geometry":{"type":"Point","coordinates":[-8.1821692605165612,40.94678765164241]},"properties":{"albufeira":"Alvarenga","lagua":"RIO PAIVA","bacia":"DOURO","distrito":"AVEIRO","concelho":"AROUCA","longdd":-8.1821733810000001,"latdd":40.946789572999997,"ano_ifunc":0,"tipo_barra":"Arco Abóboda","alt_barrag":0,"supinundnp":0,"rhidro_cod":" "}},{"type":"Feature","geometry":{"type":"Point","coordinates":[-7.9105992173938127,38.278978392554585]},"properties":{"albufeira":"Alvito","lagua":"RIBEIRA DE ODIVELAS OU ORIOLA OU ALVITO","bacia":"SADO","distrito":"BEJA","concelho":"CUBA","longdd":-7.9106006190000002,"latdd":38.278992022999994,"ano_ifunc":1977,"tipo_barra":"Terra zonada","alt_barrag":48.5,"supinundnp":1480,"rhidro_cod":"24J/01A"}},{"type":"Feature","geometry":{"type":"Point","coordinates":[-7.7566531856868552,39.736421778973138]},"properties":{"albufeira":"Alvito-Tejo (prevista)","lagua":"RIO OCREZA","bacia":"TEJO","distrito":"CASTELO BRANCO","concelho":"PROENÇA-A-NOVA","longdd":-7.756668221,"latdd":39.736405188000006,"ano_ifunc":0,"tipo_barra":"Arco Abóboda","alt_barrag":0,"supinundnp":0,"rhidro_cod":" "}},{"type":"Feature","geometry":{"type":"Point","coordinates":[-8.1962091581570853,41.568894151389152]},"properties":{"albufeira":"Andorinhas","lagua":"RIO AVE","bacia":"AVE/LEÇA","distrito":"BRAGA","concelho":"GUIMARÃES","longdd":-8.1962065599999985,"latdd":41.568912246999993,"ano_ifunc":1945,"tipo_barra":"Gravidade de betão","alt_barrag":25,"supinundnp":21,"rhidro_cod":"04H/02AE"}},{"type":"Feature","geometry":{"type":"Point","coordinates":[-7.3838016904564281,39.350197081496674]},"properties":{"albufeira":"Apartadura","lagua":"RIBEIRA DAS REVELADAS","bacia":"TEJO","distrito":"PORTALEGRE","concelho":"MARVÃO","longdd":-7.3838377250000002,"latdd":39.350177698999993,"ano_ifunc":1993,"tipo_barra":"Enrocamento com cortina a montante","alt_barrag":46.5,"supinundnp":48,"rhidro_cod":"17M/01A"}},{"type":"Feature","geometry":{"type":"Point","coordinates":[-8.376283787152202,37.239465376665187]},"properties":{"albufeira":"Arade","lagua":"RIO ARADE","bacia":"ARADE","distrito":"FARO","concelho":"SILVES","longdd":-8.3762647690000023,"latdd":37.239474176999998,"ano_ifunc":1956,"tipo_barra":"Terra zonada","alt_barrag":50,"supinundnp":182,"rhidro_cod":"30G/02A"}},{"type":"Feature","geometry":{"type":"Point","coordinates":[-7.3803171161173609,41.782620163898727]},"properties":{"albufeira":"Arcossó","lagua":"RIBEIRA DE ARCUSSO","bacia":"DOURO","distrito":"VILA REAL","concelho":"CHAVES","longdd":-7.380285133000001,"latdd":41.782631051999999,"ano_ifunc":1999,"tipo_barra":"Enrocamento com cortina a montante","alt_barrag":40,"supinundnp":41,"rhidro_cod":" "}},{"type":"Feature","geometry":{"type":"Point","coordinates":[-8.7084216422692666,41.850247867913886]},"properties":{"albufeira":"Arga Baixo","lagua":"RIBEIRO DE S. JOAO","bacia":"MINHO/ÂNCORA","distrito":"VIANA DO CASTELO","concelho":"CAMINHA","longdd":-8.708429787,"latdd":41.850282534000002,"ano_ifunc":0,"tipo_barra":"Terra","alt_barrag":0,"supinundnp":0,"rhidro_cod":" "}},{"type":"Feature","geometry":{"type":"Point","coordinates":[-6.9574592811190374,41.096252140838544]},"properties":{"albufeira":"Arroio","lagua":"RIBEIRA DO ARROIO","bacia":"DOURO","distrito":"BRAGANÇA","concelho":"FREIXO DE ESPADA À CINTA","longdd":-6.9574394589999997,"latdd":41.096243264000002,"ano_ifunc":1992,"tipo_barra":"Terra","alt_barrag":0,"supinundnp":15,"rhidro_cod":"07P/01A"}},{"type":"Feature","geometry":{"type":"Point","coordinates":[-7.0270903761523194,40.651832317071253]},"properties":{"albufeira":"Atalaia","lagua":"RIO CÔA","bacia":"DOURO","distrito":"GUARDA","concelho":"PINHEL","longdd":-7.0270833719999999,"latdd":40.651814793,"ano_ifunc":0,"tipo_barra":"Enrocamento","alt_barrag":0,"supinundnp":0,"rhidro_cod":" "}},{"type":"Feature","geometry":{"type":"Point","coordinates":[-6.8881106451008494,41.556642072560031]},"properties":{"albufeira":"Azibo","lagua":"RIO AZIBO","bacia":"DOURO","distrito":"BRAGANÇA","concelho":"MACEDO DE CAVALEIROS","longdd":-6.8880783030000003,"latdd":41.556640637000001,"ano_ifunc":1982,"tipo_barra":"Terra zonada","alt_barrag":56,"supinundnp":410,"rhidro_cod":"04P/01A"}},{"type":"Feature","geometry":{"type":"Point","coordinates":[-7.1212414910058133,39.096331340383237]},"properties":{"albufeira":"Abrilongo","lagua":"RIBEIRA DO ABRILONGO","bacia":"GUADIANA","distrito":"PORTALEGRE","concelho":"CAMPO MAIOR","longdd":-7.1212949600000002,"latdd":39.096329613999998,"ano_ifunc":2000,"tipo_barra":"Terra","alt_barrag":30,"supinundnp":295,"rhidro_cod":"19O/01AE"}},{"type":"Feature","geometry":{"type":"Point","coordinates":[-8.1967021778974782,40.340729383762806]},"properties":{"albufeira":"Aguieira","lagua":"RIO MONDEGO","bacia":"MONDEGO","distrito":"VISEU","concelho":"MORTÁGUA","longdd":-8.1967082500000004,"latdd":40.340723245999996,"ano_ifunc":1981,"tipo_barra":"Arcos Múltiplos","alt_barrag":89,"supinundnp":2000,"rhidro_cod":"11H/01A"}},{"type":"Feature","geometry":{"type":"Point","coordinates":[-7.493463118989907,37.47023492381674]},"properties":{"albufeira":"Alcoutim","lagua":"RIBEIRA DE CADAVAIS","bacia":"GUADIANA","distrito":"FARO","concelho":"ALCOUTIM","longdd":-7.4934456220000003,"latdd":37.470242530999997,"ano_ifunc":1995,"tipo_barra":"Enrocamento com núcleo","alt_barrag":30.5,"supinundnp":0,"rhidro_cod":" "}},{"type":"Feature","geometry":{"type":"Point","coordinates":[-7.4910729773555591,41.308460396704682]},"properties":{"albufeira":"Alijó (Vila Chã)","lagua":"RIBEIRA DA CHA","bacia":"DOURO","distrito":"VILA REAL","concelho":"ALIJÓ","longdd":-7.4910584899999995,"latdd":41.30846296,"ano_ifunc":1991,"tipo_barra":"Terra zonada","alt_barrag":40,"supinundnp":18,"rhidro_cod":"06M/01A"}},{"type":"Feature","geometry":{"type":"Point","coordinates":[-7.7467973628358253,39.512242407704889]},"properties":{"albufeira":"Figueiró","lagua":"RIBEIRA DE FIGUEIRO","bacia":"TEJO","distrito":"PORTALEGRE","concelho":"NISA","longdd":-7.7468093170000003,"latdd":39.512224924000002,"ano_ifunc":0,"tipo_barra":" ","alt_barrag":43,"supinundnp":0,"rhidro_cod":" "}},{"type":"Feature","geometry":{"type":"Point","coordinates":[-7.337524152731814,40.540325695589082]},"properties":{"albufeira":"Açude Pateiro","lagua":"RIO MONDEGO","bacia":"MONDEGO","distrito":"GUARDA","concelho":"GUARDA","longdd":-7.3375233570000002,"latdd":40.540312036000003,"ano_ifunc":1938,"tipo_barra":"Alvenaria","alt_barrag":7.7000000000000002,"supinundnp":0,"rhidro_cod":" "}},{"type":"Feature","geometry":{"type":"Point","coordinates":[-8.0704766914624688,40.548789303655241]},"properties":{"albufeira":"Açude Pisões","lagua":"RIO DINHA","bacia":"MONDEGO","distrito":"VISEU","concelho":"TONDELA","longdd":-8.0704831399999986,"latdd":40.548784738999991,"ano_ifunc":1927,"tipo_barra":"Alvenaria","alt_barrag":2,"supinundnp":0,"rhidro_cod":" "}},{"type":"Feature","geometry":{"type":"Point","coordinates":[-8.7182182643979225,39.45539949917967]},"properties":{"albufeira":"Açude Ponte da Pedra","lagua":"RIO ALVIELA","bacia":"TEJO","distrito":"SANTARÉM","concelho":"ALCANENA","longdd":-8.718219435,"latdd":39.455385428,"ano_ifunc":0,"tipo_barra":" ","alt_barrag":0,"supinundnp":0,"rhidro_cod":" "}},{"type":"Feature","geometry":{"type":"Point","coordinates":[-8.0340710145916052,40.256522980623863]},"properties":{"albufeira":"Açude Rei de Moinhos","lagua":"RIO ALVA OU RIBEIRA DA FERVENÇA","bacia":"MONDEGO","distrito":"COIMBRA","concelho":"TÁBUA","longdd":-8.0340772100000013,"latdd":40.256514718000005,"ano_ifunc":1939,"tipo_barra":"Alvenaria","alt_barrag":5.5,"supinundnp":0,"rhidro_cod":" "}},{"type":"Feature","geometry":{"type":"Point","coordinates":[-7.932909366747511,40.756278475184523]},"properties":{"albufeira":"Açude Ribafeita","lagua":"RIO VOUGA","bacia":"VOUGA/RIBEIRAS COSTEIRAS","distrito":"VISEU","concelho":"VISEU","longdd":-7.9329121769999995,"latdd":40.756276378000003,"ano_ifunc":0,"tipo_barra":"Blocos Betão","alt_barrag":0,"supinundnp":0,"rhidro_cod":" "}},{"type":"Feature","geometry":{"type":"Point","coordinates":[-7.4994320321918799,41.717793809833388]},"properties":{"albufeira":"Açude Veiga Chaves/Aç.V.Verde Raia","lagua":"RIO TÂMEGA","bacia":"DOURO","distrito":"VILA REAL","concelho":"CHAVES","longdd":-7.4994058089999998,"latdd":41.717805463999994,"ano_ifunc":0,"tipo_barra":"Gravidade de betão","alt_barrag":6,"supinundnp":1,"rhidro_cod":" "}},{"type":"Feature","geometry":{"type":"Point","coordinates":[-7.6881403918915323,40.378829940271622]},"properties":{"albufeira":"Açude da Caniça","lagua":"RIBEIRA DA CANICA OU DA LAGOA OU DA PRAGUEIRA","bacia":"MONDEGO","distrito":"GUARDA","concelho":"SEIA","longdd":-7.6881445050000004,"latdd":40.378818105999997,"ano_ifunc":1940,"tipo_barra":"Alvenaria","alt_barrag":1,"supinundnp":0,"rhidro_cod":" "}},{"type":"Feature","geometry":{"type":"Point","coordinates":[-7.6292867622348686,38.110236129234003]},"properties":{"albufeira":"Açude de Pedrogão","lagua":"RIO GUADIANA","bacia":"GUADIANA","distrito":"BEJA","concelho":"SERPA","longdd":-7.6292838969999996,"latdd":38.110252578000001,"ano_ifunc":2005,"tipo_barra":"Gravidade de betão","alt_barrag":43,"supinundnp":1104,"rhidro_cod":" "}},{"type":"Feature","geometry":{"type":"Point","coordinates":[-7.7088498524941418,40.383166701650062]},"properties":{"albufeira":"Açude de Ponte Jugais","lagua":"RIO ALVA OU RIBEIRA DA FERVENÇA","bacia":"MONDEGO","distrito":"GUARDA","concelho":"SEIA","longdd":-7.7088540979999998,"latdd":40.383155404,"ano_ifunc":1966,"tipo_barra":"Alvenaria","alt_barrag":10,"supinundnp":0,"rhidro_cod":" "}},{"type":"Feature","geometry":{"type":"Point","coordinates":[-7.706967945335288,40.384681711744996]},"properties":{"albufeira":"Açude de Vila Cova","lagua":"RIO ALVA OU RIBEIRA DA FERVENÇA","bacia":"MONDEGO","distrito":"GUARDA","concelho":"SEIA","longdd":-7.7069721300000005,"latdd":40.384670412999995,"ano_ifunc":1937,"tipo_barra":"Alvenaria","alt_barrag":9,"supinundnp":0,"rhidro_cod":" "}},{"type":"Feature","geometry":{"type":"Point","coordinates":[-7.6946525569795545,40.395208052930478]},"properties":{"albufeira":"Açude do Desterro","lagua":"RIO ALVA OU RIBEIRA DA FERVENÇA","bacia":"MONDEGO","distrito":"GUARDA","concelho":"SEIA","longdd":-7.6946563179999998,"latdd":40.395196806000001,"ano_ifunc":1959,"tipo_barra":"Alvenaria","alt_barrag":9.5,"supinundnp":0,"rhidro_cod":" "}},{"type":"Feature","geometry":{"type":"Point","coordinates":[-8.1263718840675416,38.772839699669859]},"properties":{"albufeira":"Açude do Negro","lagua":"RIBEIRA DA FANICA OU DE S. PEDRO","bacia":"TEJO","distrito":"ÉVORA","concelho":"ARRAIOLOS","longdd":-8.126376049000001,"latdd":38.772842530999995,"ano_ifunc":0,"tipo_barra":" ","alt_barrag":0,"supinundnp":0,"rhidro_cod":" "}},{"type":"Feature","geometry":{"type":"Point","coordinates":[-8.4401023004875828,40.21574742027142]},"properties":{"albufeira":"Açude- Ponte de Coimbra","lagua":"RIO MONDEGO","bacia":"MONDEGO","distrito":"COIMBRA","concelho":"COIMBRA","longdd":-8.4401122910000002,"latdd":40.215739345999999,"ano_ifunc":1981,"tipo_barra":"Açude móvel (com comportas)","alt_barrag":39.200000000000003,"supinundnp":92.5,"rhidro_cod":"12G/01AE"}},{"type":"Feature","geometry":{"type":"Point","coordinates":[-6.6595952713671824,41.394568805792943]},"properties":{"albufeira":"Bastêlos","lagua":"RIBEIRA DE MACEDO","bacia":"DOURO","distrito":"BRAGANÇA","concelho":"MOGADOURO","longdd":-6.659563028,"latdd":41.394562066999995,"ano_ifunc":1993,"tipo_barra":"Enrocamento drenante","alt_barrag":23.199999999999999,"supinundnp":17.600000000000001,"rhidro_cod":"05R/01A"}},{"type":"Feature","geometry":{"type":"Point","coordinates":[-7.5092435227192222,37.276405428346607]},"properties":{"albufeira":"Beliche","lagua":"RIBEIRA DE BELICHE","bacia":"GUADIANA","distrito":"FARO","concelho":"CASTRO MARIM","longdd":-7.5092270469999995,"latdd":37.276413510000005,"ano_ifunc":1986,"tipo_barra":"Enrocamento com núcleo","alt_barrag":54,"supinundnp":292,"rhidro_cod":"30L/02A"}},{"type":"Feature","geometry":{"type":"Point","coordinates":[-7.9984471149889531,39.479685542073852]},"properties":{"albufeira":"Belver","lagua":"RIO TEJO","bacia":"TEJO","distrito":"PORTALEGRE","concelho":"GAVIÃO","longdd":-7.9984542730000001,"latdd":39.479669272999992,"ano_ifunc":1952,"tipo_barra":"Gravidade de betão","alt_barrag":30,"supinundnp":286,"rhidro_cod":"17J/01A"}},{"type":"Feature","geometry":{"type":"Point","coordinates":[-6.4699144571176888,41.301196237131471]},"properties":{"albufeira":"Bemposta","lagua":"RIO DOURO","bacia":"DOURO","distrito":"BRAGANÇA","concelho":"MOGADOURO","longdd":-6.4698837320000004,"latdd":41.301186098999999,"ano_ifunc":1964,"tipo_barra":"Gravidade de betão","alt_barrag":87,"supinundnp":405,"rhidro_cod":"06S/01A"}},{"type":"Feature","geometry":{"type":"Point","coordinates":[-7.0835419284105692,40.140246033487614]},"properties":{"albufeira":"Beságueda","lagua":"RIO BESAGUEDA","bacia":"TEJO","distrito":"CASTELO BRANCO","concelho":"PENAMACOR","longdd":-7.0835519369999993,"latdd":40.14022404,"ano_ifunc":0,"tipo_barra":"Blocos Betão","alt_barrag":0,"supinundnp":0,"rhidro_cod":"13O/02H"}},{"type":"Feature","geometry":{"type":"Point","coordinates":[-7.4125615016648849,40.95689367459466]},"properties":{"albufeira":"Bezêlga","lagua":"RIBEIRA DE FENERAS","bacia":"DOURO","distrito":"VISEU","concelho":"PENEDONO","longdd":-7.4125540059999997,"latdd":40.956888706000001,"ano_ifunc":0,"tipo_barra":" ","alt_barrag":0,"supinundnp":0,"rhidro_cod":" "}},{"type":"Feature","geometry":{"type":"Point","coordinates":[-8.0906003983251704,37.50296485894534]},"properties":{"albufeira":"Boavista","lagua":"BARRANCO DA BOAVISTA","bacia":"GUADIANA","distrito":"BEJA","concelho":"ALMODÔVAR","longdd":-8.0905869520000007,"latdd":37.502975911999997,"ano_ifunc":0,"tipo_barra":"Terra","alt_barrag":8,"supinundnp":0,"rhidro_cod":"28I/01A"}},{"type":"Feature","geometry":{"type":"Point","coordinates":[-8.2197442546360051,39.853671343016757]},"properties":{"albufeira":"Bouçã","lagua":"RIO ZÊZERE","bacia":"TEJO","distrito":"LEIRIA","concelho":"PEDRÓGÃO GRANDE","longdd":-8.2197516620000002,"latdd":39.853658775,"ano_ifunc":1955,"tipo_barra":"Abóboda","alt_barrag":63,"supinundnp":500,"rhidro_cod":"14H/01A"}},{"type":"Feature","geometry":{"type":"Point","coordinates":[-8.6977922263673175,37.201744146539092]},"properties":{"albufeira":"Bravura","lagua":"RIBEIRO DE ODEÁXERE","bacia":"RIBEIRAS DO ALGARVE","distrito":"FARO","concelho":"LAGOS","longdd":-8.6977784629999988,"latdd":37.201749494000005,"ano_ifunc":1958,"tipo_barra":"Arco","alt_barrag":41,"supinundnp":285,"rhidro_cod":"30E/01A"}},{"type":"Feature","geometry":{"type":"Point","coordinates":[-6.9982592187150985,38.156982323202328]},"properties":{"albufeira":"Bufo","lagua":"RIBEIRA DA MÚRTEGA","bacia":"GUADIANA","distrito":"BEJA","concelho":"BARRANCOS","longdd":-6.9982595089999995,"latdd":38.157005626999997,"ano_ifunc":1983,"tipo_barra":"Gravidade de betão","alt_barrag":0,"supinundnp":0,"rhidro_cod":"25P/01H"}},{"type":"Feature","geometry":{"type":"Point","coordinates":[-7.0500692221895287,41.39101249684942]},"properties":{"albufeira":"Burga","lagua":"RIBEIRA DO CEREJAL","bacia":"DOURO","distrito":"BRAGANÇA","concelho":"VILA FLOR","longdd":-7.0500432640000001,"latdd":41.391011313999996,"ano_ifunc":1978,"tipo_barra":"Terra homogénea","alt_barrag":35,"supinundnp":16,"rhidro_cod":"05O/01A"}},{"type":"Feature","geometry":{"type":"Point","coordinates":[-8.444677502520733,40.804994373748812]},"properties":{"albufeira":"Burgães","lagua":"RIO CAIMA","bacia":"VOUGA/RIBEIRAS COSTEIRAS","distrito":"AVEIRO","concelho":"OLIVEIRA DE AZEMÉIS","longdd":-8.4446933980000001,"latdd":40.804999376000005,"ano_ifunc":1940,"tipo_barra":"Alvenaria","alt_barrag":28,"supinundnp":5,"rhidro_cod":"08H/01A"}},{"type":"Feature","geometry":{"type":"Point","coordinates":[-7.7139718710614726,41.47172051156312]},"properties":{"albufeira":"Cabouços","lagua":"RIBEIRA DE CABOUCO","bacia":"DOURO","distrito":"VILA REAL","concelho":"VILA POUCA DE AGUIAR","longdd":-7.7139587789999995,"latdd":41.471729908,"ano_ifunc":0,"tipo_barra":"Terra","alt_barrag":0,"supinundnp":0,"rhidro_cod":" "}},{"type":"Feature","geometry":{"type":"Point","coordinates":[-7.9326014873184274,40.890969668847944]},"properties":{"albufeira":"Castro Daire","lagua":"RIO PAIVA","bacia":"DOURO","distrito":"VISEU","concelho":"CASTRO DAIRE","longdd":-7.9326028840000005,"latdd":40.890969341000002,"ano_ifunc":0,"tipo_barra":"Arco Abóboda","alt_barrag":0,"supinundnp":0,"rhidro_cod":" "}},{"type":"Feature","geometry":{"type":"Point","coordinates":[-8.1328172277865338,39.917819957686909]},"properties":{"albufeira":"Cabril","lagua":"RIO ZÊZERE","bacia":"TEJO","distrito":"LEIRIA","concelho":"PEDRÓGÃO GRANDE","longdd":-8.1328243799999989,"latdd":39.917807097999997,"ano_ifunc":1954,"tipo_barra":"Abóboda","alt_barrag":132,"supinundnp":2023,"rhidro_cod":"14I/01A"}},{"type":"Feature","geometry":{"type":"Point","coordinates":[-7.1595234316158107,41.395986826810599]},"properties":{"albufeira":"Cachão","lagua":" ","bacia":"DOURO","distrito":"BRAGANÇA","concelho":"MIRANDELA","longdd":-7.1594994600000001,"latdd":41.395986639999997,"ano_ifunc":1972,"tipo_barra":"Terra","alt_barrag":20,"supinundnp":0,"rhidro_cod":" "}},{"type":"Feature","geometry":{"type":"Point","coordinates":[-7.1492433295319318,38.997755325625917]},"properties":{"albufeira":"Caia","lagua":"RIO CAIA","bacia":"GUADIANA","distrito":"PORTALEGRE","concelho":"ELVAS","longdd":-7.1492945090000006,"latdd":38.997759166999998,"ano_ifunc":1967,"tipo_barra":"Contrafortes","alt_barrag":52,"supinundnp":1970,"rhidro_cod":"20O/01A"}},{"type":"Feature","geometry":{"type":"Point","coordinates":[-7.3301901394425268,40.531738367978605]},"properties":{"albufeira":"Caldeirão","lagua":"RIBEIRA DO CALDEIRÃO","bacia":"MONDEGO","distrito":"GUARDA","concelho":"GUARDA","longdd":-7.3301894969999992,"latdd":40.531724505,"ano_ifunc":1993,"tipo_barra":"Arco","alt_barrag":39,"supinundnp":66,"rhidro_cod":"10M/01A"}},{"type":"Feature","geometry":{"type":"Point","coordinates":[-8.5801477432096522,39.496210613132305]},"properties":{"albufeira":"Caldeirão(Tejo)","lagua":"RIO ALMONDA","bacia":"TEJO","distrito":"SANTARÉM","concelho":"TORRES NOVAS","longdd":-8.5801519549999998,"latdd":39.496196270999995,"ano_ifunc":0,"tipo_barra":"Arco Abóboda","alt_barrag":14,"supinundnp":0,"rhidro_cod":" "}},{"type":"Feature","geometry":{"type":"Point","coordinates":[-6.9009496164301884,41.44586735742466]},"properties":{"albufeira":"Camba","lagua":"RIBEIRA DE LAMEIRÃO OU DA CAMBA","bacia":"DOURO","distrito":"BRAGANÇA","concelho":"ALFÂNDEGA DA FÉ","longdd":-6.9009191110000003,"latdd":41.445865204999997,"ano_ifunc":1993,"tipo_barra":"Terra zonada","alt_barrag":35,"supinundnp":9.5,"rhidro_cod":"05P/02A"}},{"type":"Feature","geometry":{"type":"Point","coordinates":[-8.6190445525188064,37.84144518503966]},"properties":{"albufeira":"Campilhas","lagua":"RIBEIRA DE CAMPILHAS","bacia":"SADO","distrito":"SETÚBAL","concelho":"SANTIAGO DO CACÉM","longdd":-8.6190330199999998,"latdd":37.841454730000002,"ano_ifunc":1954,"tipo_barra":"Terra zonada com cortina","alt_barrag":35,"supinundnp":333,"rhidro_cod":"26F/01A"}},{"type":"Feature","geometry":{"type":"Point","coordinates":[-8.2313460175224531,41.652490845996482]},"properties":{"albufeira":"Caniçada","lagua":"RIO CÁVADO","bacia":"CÁVADO/RIBEIRAS COSTEIRAS","distrito":"BRAGA","concelho":"VIEIRA DO MINHO","longdd":-8.2313423809999993,"latdd":41.652512365,"ano_ifunc":1955,"tipo_barra":"Arco","alt_barrag":76,"supinundnp":689,"rhidro_cod":"04H/01A"}},{"type":"Feature","geometry":{"type":"Point","coordinates":[-7.3828686790378271,40.214754481723318]},"properties":{"albufeira":"Capinha","lagua":"RIBEIRA DAS POLDRAS","bacia":"TEJO","distrito":"CASTELO BRANCO","concelho":"FUNDÃO","longdd":-7.3828783189999996,"latdd":40.214738144000002,"ano_ifunc":1981,"tipo_barra":"Terra homogénea","alt_barrag":18,"supinundnp":9.6999999999999993,"rhidro_cod":"12M/01A"}},{"type":"Feature","geometry":{"type":"Point","coordinates":[-8.1309709980695537,41.085617574962654]},"properties":{"albufeira":"Carrapatelo","lagua":"RIO DOURO","bacia":"DOURO","distrito":"VISEU","concelho":"CINFÃES","longdd":-8.1309730370000004,"latdd":41.085622401999998,"ano_ifunc":1972,"tipo_barra":"Gravidade de betão","alt_barrag":57,"supinundnp":952,"rhidro_cod":"07I/01A"}},{"type":"Feature","geometry":{"type":"Point","coordinates":[-7.90277113280957,38.737318270581106]},"properties":{"albufeira":"Carrasqueira (Part.)","lagua":"RIBEIRA DO CABIDO","bacia":"TEJO","distrito":"ÉVORA","concelho":"ARRAIOLOS","longdd":-7.9027829910000005,"latdd":38.737323476,"ano_ifunc":0,"tipo_barra":" ","alt_barrag":0,"supinundnp":0,"rhidro_cod":" "}},{"type":"Feature","geometry":{"type":"Point","coordinates":[-6.9810794435364105,41.508478594018669]},"properties":{"albufeira":"Carvalheira","lagua":"RIBEIRA DA CARVALHEIRA OU DAS CALES","bacia":"DOURO","distrito":"BRAGANÇA","concelho":"MACEDO DE CAVALEIROS","longdd":-6.9810495269999997,"latdd":41.508477474000003,"ano_ifunc":1971,"tipo_barra":"Terra","alt_barrag":0,"supinundnp":1,"rhidro_cod":" "}},{"type":"Feature","geometry":{"type":"Point","coordinates":[-6.9252372280249794,41.190728693168026]},"properties":{"albufeira":"Carviçais(V.Ferreiros)","lagua":"RIBEIRA DO MONDEGO","bacia":"DOURO","distrito":"BRAGANÇA","concelho":"TORRE DE MONCORVO","longdd":-6.9252137030000007,"latdd":41.190722346999998,"ano_ifunc":1984,"tipo_barra":"Terra zonada","alt_barrag":20,"supinundnp":22,"rhidro_cod":"06P/01A"}},{"type":"Feature","geometry":{"type":"Point","coordinates":[-7.8772856781443918,40.185627744191677]},"properties":{"albufeira":"Castanheira","lagua":" ","bacia":"MONDEGO","distrito":"COIMBRA","concelho":"PAMPILHOSA DA SERRA","longdd":-7.877293152,"latdd":40.185616272000004,"ano_ifunc":0,"tipo_barra":"Gravidade de betão","alt_barrag":14,"supinundnp":0,"rhidro_cod":" "}},{"type":"Feature","geometry":{"type":"Point","coordinates":[-8.2374909942999484,41.054549523799132]},"properties":{"albufeira":"Castelo Paiva","lagua":"RIO PAIVA","bacia":"DOURO","distrito":"VISEU","concelho":"CINFÃES","longdd":-8.2374960049999988,"latdd":41.054554439999997,"ano_ifunc":0,"tipo_barra":"Enrocamento","alt_barrag":0,"supinundnp":0,"rhidro_cod":" "}},{"type":"Feature","geometry":{"type":"Point","coordinates":[-8.3188647582204034,39.543055147580475]},"properties":{"albufeira":"Castelo de Bode","lagua":"RIO ZÊZERE","bacia":"TEJO","distrito":"SANTARÉM","concelho":"TOMAR","longdd":-8.3188712579999997,"latdd":39.543041439999996,"ano_ifunc":1951,"tipo_barra":"Gravidade de betão","alt_barrag":115,"supinundnp":3291,"rhidro_cod":"16H/01A"}},{"type":"Feature","geometry":{"type":"Point","coordinates":[-8.229107923637498,38.814960160674524]},"properties":{"albufeira":"Ciborro","lagua":"RIBEIRA DAS BARROSAS","bacia":"TEJO","distrito":"ÉVORA","concelho":"MONTEMOR-O-NOVO","longdd":-8.2291095710000004,"latdd":38.814960040999999,"ano_ifunc":1977,"tipo_barra":"Terra","alt_barrag":25,"supinundnp":0,"rhidro_cod":" "}},{"type":"Feature","geometry":{"type":"Point","coordinates":[-7.90390232628656,39.816979811639072]},"properties":{"albufeira":"Corgas","lagua":"RIO ISNA","bacia":"TEJO","distrito":"CASTELO BRANCO","concelho":"OLEIROS","longdd":-7.9039124350000005,"latdd":39.816963639999997,"ano_ifunc":1991,"tipo_barra":"Gravidade de betão","alt_barrag":30,"supinundnp":11,"rhidro_cod":"15J/01A"}},{"type":"Feature","geometry":{"type":"Point","coordinates":[-8.4434724237851828,37.58280349973905]},"properties":{"albufeira":"Corte Brique","lagua":"RIBEIRA DA CORTE BRIQUE","bacia":"MIRA","distrito":"BEJA","concelho":"ODEMIRA","longdd":-8.4434618570000008,"latdd":37.582816080999997,"ano_ifunc":1993,"tipo_barra":"Terra homogénea","alt_barrag":28,"supinundnp":17.800000000000001,"rhidro_cod":"28G/02AE"}},{"type":"Feature","geometry":{"type":"Point","coordinates":[-7.5750783969629127,40.267413282961172]},"properties":{"albufeira":"Cortes","lagua":"RIBEIRA DO PAUL OU CORTES","bacia":"TEJO","distrito":"CASTELO BRANCO","concelho":"COVILHÃ","longdd":-7.5750862679999997,"latdd":40.267398612000001,"ano_ifunc":0,"tipo_barra":" ","alt_barrag":0,"supinundnp":0,"rhidro_cod":" "}},{"type":"Feature","geometry":{"type":"Point","coordinates":[-7.5609355896268049,40.309363845397691]},"properties":{"albufeira":"Cova do Viriato","lagua":"RIBEIRA DO PAUL OU CORTES","bacia":"TEJO","distrito":"CASTELO BRANCO","concelho":"COVILHÃ","longdd":-7.5609429930000003,"latdd":40.309349529999999,"ano_ifunc":1982,"tipo_barra":"Gravidade de betão","alt_barrag":28,"supinundnp":23.5,"rhidro_cod":"12L/02A"}},{"type":"Feature","geometry":{"type":"Point","coordinates":[-8.7062139747930498,41.879374566379965]},"properties":{"albufeira":"Covas","lagua":"RIO COURA","bacia":"MINHO/ÂNCORA","distrito":"VIANA DO CASTELO","concelho":"VILA NOVA DE CERVEIRA","longdd":-8.7062247260000021,"latdd":41.879413976999992,"ano_ifunc":1976,"tipo_barra":"Gravidade de betão","alt_barrag":0,"supinundnp":0,"rhidro_cod":" "}},{"type":"Feature","geometry":{"type":"Point","coordinates":[-7.6004555971065537,40.391455179971445]},"properties":{"albufeira":"Covão da Erva Fome","lagua":" ","bacia":"MONDEGO","distrito":"GUARDA","concelho":"SEIA","longdd":-7.600461428,"latdd":40.391442825999995,"ano_ifunc":1955,"tipo_barra":"Arco Gravidade","alt_barrag":10,"supinundnp":7,"rhidro_cod":" "}},{"type":"Feature","geometry":{"type":"Point","coordinates":[-7.6246248472891693,40.336082556284893]},"properties":{"albufeira":"Covão da Lameira ou do Boeiro","lagua":"RIBEIRA DE LORIGA","bacia":"MONDEGO","distrito":"GUARDA","concelho":"SEIA","longdd":-7.6246301230000002,"latdd":40.336068835999995,"ano_ifunc":0,"tipo_barra":" ","alt_barrag":0,"supinundnp":0,"rhidro_cod":" "}},{"type":"Feature","geometry":{"type":"Point","coordinates":[-7.6431876903843845,40.371454215556511]},"properties":{"albufeira":"Covão do Curral","lagua":"RIBEIRA DO COVAO DO URSO OU DA NAVE DESCIDA OU DAS NAVES","bacia":"MONDEGO","distrito":"GUARDA","concelho":"SEIA","longdd":-7.6431917100000009,"latdd":40.371441288999996,"ano_ifunc":1945,"tipo_barra":"Alvenaria","alt_barrag":10,"supinundnp":41,"rhidro_cod":" "}},{"type":"Feature","geometry":{"type":"Point","coordinates":[-7.5953460159860322,40.313670952794844]},"properties":{"albufeira":"Covão do Ferro","lagua":"RIBEIRA DE UNHAIS","bacia":"TEJO","distrito":"CASTELO BRANCO","concelho":"COVILHÃ","longdd":-7.5953522530000006,"latdd":40.313656956999999,"ano_ifunc":1956,"tipo_barra":"Gravidade de betão","alt_barrag":35,"supinundnp":0,"rhidro_cod":"12L/01AE"}},{"type":"Feature","geometry":{"type":"Point","coordinates":[-7.638311205417649,40.368479836589543]},"properties":{"albufeira":"Covão do Forno","lagua":"RIBEIRA DA CANICA OU DA LAGOA OU DA PRAGUEIRA","bacia":"MONDEGO","distrito":"GUARDA","concelho":"SEIA","longdd":-7.6383153459999997,"latdd":40.368466768000005,"ano_ifunc":1966,"tipo_barra":"Gravidade de betão","alt_barrag":7,"supinundnp":0,"rhidro_cod":" "}},{"type":"Feature","geometry":{"type":"Point","coordinates":[-7.6329487038806008,40.333957522625468]},"properties":{"albufeira":"Covão do Meio","lagua":"RIBEIRA DE LORIGA","bacia":"MONDEGO","distrito":"GUARDA","concelho":"SEIA","longdd":-7.6329540790000001,"latdd":40.333943764999994,"ano_ifunc":1953,"tipo_barra":"Gravidade de betão","alt_barrag":31.5,"supinundnp":90,"rhidro_cod":"13L/01AE"}},{"type":"Feature","geometry":{"type":"Point","coordinates":[-7.7257815055765287,41.491831536718593]},"properties":{"albufeira":"Gouvães (prevista)","lagua":"RIO LOUREDO","bacia":"DOURO","distrito":"VILA REAL","concelho":"VILA POUCA DE AGUIAR","longdd":-7.725768315999999,"latdd":41.491841573999999,"ano_ifunc":0,"tipo_barra":"Contrafortes","alt_barrag":0,"supinundnp":0,"rhidro_cod":"06K/05A"}},{"type":"Feature","geometry":{"type":"Point","coordinates":[-7.6230588381555933,40.370782061937163]},"properties":{"albufeira":"Covão do Vale do Conde","lagua":"RIBEIRA DO COVAO DO URSO OU DA NAVE DESCIDA OU DAS NAVES","bacia":"MONDEGO","distrito":"GUARDA","concelho":"SEIA","longdd":-7.6230627900000005,"latdd":40.370769015999997,"ano_ifunc":1955,"tipo_barra":"Alvenaria","alt_barrag":5,"supinundnp":0,"rhidro_cod":" "}},{"type":"Feature","geometry":{"type":"Point","coordinates":[-7.6100845084825588,40.364546601251362]},"properties":{"albufeira":"Covão dos Conchos","lagua":"RIBEIRA DO COVAO DO URSO OU DA NAVE DESCIDA OU DAS NAVES","bacia":"MONDEGO","distrito":"GUARDA","concelho":"SEIA","longdd":-7.6100887430000004,"latdd":40.364533401999999,"ano_ifunc":1955,"tipo_barra":"Gravidade de betão","alt_barrag":4.5999999999999996,"supinundnp":20,"rhidro_cod":" "}},{"type":"Feature","geometry":{"type":"Point","coordinates":[-7.5581133065497426,39.260733406861021]},"properties":{"albufeira":"Crato","lagua":"RIBEIRA DA RAIA OU DE SEDA","bacia":"TEJO","distrito":"PORTALEGRE","concelho":"CRATO","longdd":-7.5581424269999991,"latdd":39.260719469999998,"ano_ifunc":0,"tipo_barra":"Terra","alt_barrag":56,"supinundnp":0,"rhidro_cod":" "}},{"type":"Feature","geometry":{"type":"Point","coordinates":[-7.6960645639254404,39.326420754056215]},"properties":{"albufeira":"Crato (Nascentes)","lagua":"RIBEIRA DA SEPELHEIRA","bacia":"TEJO","distrito":"PORTALEGRE","concelho":"CRATO","longdd":-7.6960859319999999,"latdd":39.326403651999996,"ano_ifunc":1965,"tipo_barra":"Terra","alt_barrag":7,"supinundnp":0,"rhidro_cod":"18K/02A"}},{"type":"Feature","geometry":{"type":"Point","coordinates":[-8.4868120242128082,41.072877902178014]},"properties":{"albufeira":"Crestuma-Lever","lagua":"RIO DOURO","bacia":"DOURO","distrito":"PORTO","concelho":"GONDOMAR","longdd":-8.486824008000001,"latdd":41.072885802000002,"ano_ifunc":1985,"tipo_barra":"Gravidade de betão","alt_barrag":65,"supinundnp":1298,"rhidro_cod":"07G/01A"}},{"type":"Feature","geometry":{"type":"Point","coordinates":[-7.8635192744942586,41.52541254419085]},"properties":{"albufeira":"Daivões (prevista)","lagua":"RIO TÂMEGA","bacia":"DOURO","distrito":"BRAGA","concelho":"CABECEIRAS DE BASTO","longdd":-7.8635083420000003,"latdd":41.525424797999996,"ano_ifunc":0,"tipo_barra":"Gravidade de betão","alt_barrag":0,"supinundnp":0,"rhidro_cod":" "}},{"type":"Feature","geometry":{"type":"Point","coordinates":[-8.3242644010122522,37.905698075873097]},"properties":{"albufeira":"Daroeira","lagua":"RIBEIRA DA MESSEJANA OU DE ALAMO","bacia":"SADO","distrito":"SETÚBAL","concelho":"SANTIAGO DO CACÉM","longdd":-8.3242528359999994,"latdd":37.905711294000007,"ano_ifunc":1953,"tipo_barra":"Terra","alt_barrag":0,"supinundnp":105,"rhidro_cod":" "}},{"type":"Feature","geometry":{"type":"Point","coordinates":[-7.9258239937791926,38.70048056129027]},"properties":{"albufeira":"Divor","lagua":"RIO DIVÔR","bacia":"TEJO","distrito":"ÉVORA","concelho":"ARRAIOLOS","longdd":-7.9258341359999998,"latdd":38.700487512000002,"ano_ifunc":1965,"tipo_barra":"Terra","alt_barrag":23,"supinundnp":265,"rhidro_cod":"21J/01A"}},{"type":"Feature","geometry":{"type":"Point","coordinates":[-8.0718740998652159,40.741973150263981]},"properties":{"albufeira":"Drizes","lagua":"RIO VOUGA","bacia":"VOUGA/RIBEIRAS COSTEIRAS","distrito":"VISEU","concelho":"SÃO PEDRO DO SUL","longdd":-8.0718786409999996,"latdd":40.741971178999997,"ano_ifunc":0,"tipo_barra":"Blocos Betão","alt_barrag":5,"supinundnp":0,"rhidro_cod":" "}},{"type":"Feature","geometry":{"type":"Point","coordinates":[-7.4652206565874391,37.993904657489125]},"properties":{"albufeira":"Enxoé","lagua":"RIBEIRA DO ENXOÉ","bacia":"GUADIANA","distrito":"BEJA","concelho":"SERPA","longdd":-7.4652154460000002,"latdd":37.993922414999993,"ano_ifunc":1998,"tipo_barra":"Terra zonada","alt_barrag":23,"supinundnp":205,"rhidro_cod":"26M/01A"}},{"type":"Feature","geometry":{"type":"Point","coordinates":[-8.2266342121521792,40.096530576192237]},"properties":{"albufeira":"Ermida","lagua":"RIO AROUCE OU RIBEIRA DE SÃO JOÃO OU DA SARDEIRA","bacia":"MONDEGO","distrito":"COIMBRA","concelho":"LOUSÃ","longdd":-8.2266396410000002,"latdd":40.096521292999995,"ano_ifunc":0,"tipo_barra":" ","alt_barrag":0,"supinundnp":0,"rhidro_cod":"13H/01AE"}},{"type":"Feature","geometry":{"type":"Point","coordinates":[-8.359488869410109,37.99426884727167]},"properties":{"albufeira":"Ermidas","lagua":"RIO SADO OU RIBEIRA GRANDE OU DE OURIQUE","bacia":"SADO","distrito":"SETÚBAL","concelho":"SANTIAGO DO CACÉM","longdd":-8.3594783180000007,"latdd":37.994281588999996,"ano_ifunc":0,"tipo_barra":" ","alt_barrag":0,"supinundnp":0,"rhidro_cod":" "}},{"type":"Feature","geometry":{"type":"Point","coordinates":[-7.2855503525068954,40.25693217703575]},"properties":{"albufeira":"Escarigo","lagua":"RIBEIRA DO ESCARIGO","bacia":"TEJO","distrito":"CASTELO BRANCO","concelho":"FUNDÃO","longdd":-7.2855578879999996,"latdd":40.256915328000005,"ano_ifunc":1992,"tipo_barra":"Terra","alt_barrag":0,"supinundnp":0,"rhidro_cod":" "}},{"type":"Feature","geometry":{"type":"Point","coordinates":[-8.157692097875751,41.575941214702816]},"properties":{"albufeira":"Esperança","lagua":"RIO AVE","bacia":"AVE/LEÇA","distrito":"BRAGA","concelho":"PÓVOA DE LANHOSO","longdd":-8.1576881720000003,"latdd":41.575958952999997,"ano_ifunc":0,"tipo_barra":" ","alt_barrag":0,"supinundnp":0,"rhidro_cod":" "}},{"type":"Feature","geometry":{"type":"Point","coordinates":[-6.7743205819487144,41.287989865523159]},"properties":{"albufeira":"Estevais","lagua":" ","bacia":"DOURO","distrito":"BRAGANÇA","concelho":"MOGADOURO","longdd":-6.7742910869999999,"latdd":41.287983959999998,"ano_ifunc":0,"tipo_barra":" ","alt_barrag":0,"supinundnp":0,"rhidro_cod":" "}},{"type":"Feature","geometry":{"type":"Point","coordinates":[-6.9557724574825253,41.36849724257312]},"properties":{"albufeira":"Esteveinha (Alfândega da Fé)","lagua":"RIBEIRA DE SOEIMA","bacia":"DOURO","distrito":"BRAGANÇA","concelho":"ALFÂNDEGA DA FÉ","longdd":-6.955744911,"latdd":41.368494716999997,"ano_ifunc":1970,"tipo_barra":"Terra homogénea","alt_barrag":27,"supinundnp":22,"rhidro_cod":"05P/01A"}},{"type":"Feature","geometry":{"type":"Point","coordinates":[-7.793354746804928,40.634155803543642]},"properties":{"albufeira":"Fagilde","lagua":"RIO DÃO","bacia":"MONDEGO","distrito":"VISEU","concelho":"VISEU","longdd":-7.7933590340000007,"latdd":40.634149484999995,"ano_ifunc":1984,"tipo_barra":"Arco Abóboda","alt_barrag":27,"supinundnp":8,"rhidro_cod":"10K/01A"}},{"type":"Feature","geometry":{"type":"Point","coordinates":[-7.7994931046465519,38.78738071782918]},"properties":{"albufeira":"Fargela","lagua":"RIBEIRA DA FARGELA","bacia":"TEJO","distrito":"ÉVORA","concelho":"ARRAIOLOS","longdd":-7.7995107409999997,"latdd":38.787384412000002,"ano_ifunc":0,"tipo_barra":"Terra","alt_barrag":30,"supinundnp":0,"rhidro_cod":" "}},{"type":"Feature","geometry":{"type":"Point","coordinates":[-7.1103191585535992,41.211542948238133]},"properties":{"albufeira":"Feiticeiro","lagua":" ","bacia":"DOURO","distrito":"BRAGANÇA","concelho":"TORRE DE MONCORVO","longdd":-7.1102990659999996,"latdd":41.211539424999998,"ano_ifunc":0,"tipo_barra":"Gravidade de betão","alt_barrag":0,"supinundnp":0,"rhidro_cod":" "}},{"type":"Feature","geometry":{"type":"Point","coordinates":[-7.2805920128856245,41.22932276854975]},"properties":{"albufeira":"Fonte Longa","lagua":"RIBEIRA DE CATALINO","bacia":"DOURO","distrito":"BRAGANÇA","concelho":"CARRAZEDA DE ANSIÃES","longdd":-7.2805737989999999,"latdd":41.229321384999999,"ano_ifunc":1988,"tipo_barra":"Terra","alt_barrag":22,"supinundnp":0,"rhidro_cod":"06N/01A"}},{"type":"Feature","geometry":{"type":"Point","coordinates":[-8.4973307086344914,37.881470146688756]},"properties":{"albufeira":"Fonte Serne","lagua":"BARRANCO DE BENATELAR","bacia":"SADO","distrito":"SETÚBAL","concelho":"SANTIAGO DO CACÉM","longdd":-8.4973187899999996,"latdd":37.881481653999998,"ano_ifunc":1979,"tipo_barra":"Terra zonada","alt_barrag":17,"supinundnp":105,"rhidro_cod":"26G/01AE"}},{"type":"Feature","geometry":{"type":"Point","coordinates":[-7.5267299876637148,37.387562808536934]},"properties":{"albufeira":"Foupana (prevista)","lagua":"RIBEIRA DA FOUPANA","bacia":"GUADIANA","distrito":"FARO","concelho":"ALCOUTIM","longdd":-7.5267134589999998,"latdd":37.387571498000007,"ano_ifunc":0,"tipo_barra":" ","alt_barrag":0,"supinundnp":0,"rhidro_cod":" "}},{"type":"Feature","geometry":{"type":"Point","coordinates":[-7.1067345763880851,41.068844379994793]},"properties":{"albufeira":"Foz Côa (não construída)","lagua":"RIO CÔA","bacia":"DOURO","distrito":"GUARDA","concelho":"VILA NOVA DE FOZ CÔA","longdd":-7.1067183510000005,"latdd":41.068837700000003,"ano_ifunc":0,"tipo_barra":"Arco Abóboda","alt_barrag":0,"supinundnp":0,"rhidro_cod":"07O/01AE"}},{"type":"Feature","geometry":{"type":"Point","coordinates":[-7.4229210675728012,41.234022287778195]},"properties":{"albufeira":"Foz do Tua (prevista)","lagua":"RIO TUA","bacia":"DOURO","distrito":"VILA REAL","concelho":"ALIJÓ","longdd":-7.4229045579999999,"latdd":41.234023150999995,"ano_ifunc":0,"tipo_barra":"Arco Abóboda","alt_barrag":0,"supinundnp":0,"rhidro_cod":" "}},{"type":"Feature","geometry":{"type":"Point","coordinates":[-7.6650624357233443,38.795665959401575]},"properties":{"albufeira":"Fr. Joaquim","lagua":"RIBEIRA DE TERA","bacia":"TEJO","distrito":"ÉVORA","concelho":"ESTREMOZ","longdd":-7.6650816259999992,"latdd":38.795674151,"ano_ifunc":0,"tipo_barra":"Terra","alt_barrag":28,"supinundnp":0,"rhidro_cod":" "}},{"type":"Feature","geometry":{"type":"Point","coordinates":[-7.802662668546585,39.543450884714304]},"properties":{"albufeira":"Fratel","lagua":"RIO TEJO","bacia":"TEJO","distrito":"PORTALEGRE","concelho":"NISA","longdd":-7.8026734389999994,"latdd":39.543434237999996,"ano_ifunc":1973,"tipo_barra":"Gravidade de betão","alt_barrag":48,"supinundnp":1000,"rhidro_cod":"16K/02A"}},{"type":"Feature","geometry":{"type":"Point","coordinates":[-8.0185001281383457,41.070471639089853]},"properties":{"albufeira":"Freigil","lagua":"RIO CABRUM","bacia":"DOURO","distrito":"VISEU","concelho":"RESENDE","longdd":-8.0185001810000003,"latdd":41.070474654999998,"ano_ifunc":1955,"tipo_barra":"Gravidade de betão","alt_barrag":17,"supinundnp":3.2999999999999998,"rhidro_cod":"07J/01AE"}},{"type":"Feature","geometry":{"type":"Point","coordinates":[-7.9813580013854422,41.511869167219345]},"properties":{"albufeira":"Freita/Cefra","lagua":"RIO DE OURO","bacia":"DOURO","distrito":"BRAGA","concelho":"CABECEIRAS DE BASTO","longdd":-7.9813500660000001,"latdd":41.511882411999999,"ano_ifunc":0,"tipo_barra":"Gravidade de betão","alt_barrag":0,"supinundnp":0,"rhidro_cod":" "}},{"type":"Feature","geometry":{"type":"Point","coordinates":[-8.3042250208108488,38.761942000407274]},"properties":{"albufeira":"Freixeirinha","lagua":"RIBEIRA DA FREIXEIRINHA","bacia":"TEJO","distrito":"ÉVORA","concelho":"MONTEMOR-O-NOVO","longdd":-8.3042246839999994,"latdd":38.761943079999995,"ano_ifunc":1995,"tipo_barra":"Terra zonada","alt_barrag":37,"supinundnp":0,"rhidro_cod":" "}},{"type":"Feature","geometry":{"type":"Point","coordinates":[-8.0229045649452448,41.321840598367977]},"properties":{"albufeira":"Fridão (prevista)","lagua":"RIO TÂMEGA","bacia":"DOURO","distrito":"PORTO","concelho":"AMARANTE","longdd":-8.0229003970000008,"latdd":41.321849178000001,"ano_ifunc":0,"tipo_barra":"Arco Abóboda","alt_barrag":0,"supinundnp":0,"rhidro_cod":" "}},{"type":"Feature","geometry":{"type":"Point","coordinates":[-8.1637644912726959,40.246275108576391]},"properties":{"albufeira":"Fronhas","lagua":"RIO ALVA OU RIBEIRA DA FERVENÇA","bacia":"MONDEGO","distrito":"COIMBRA","concelho":"ARGANIL","longdd":-8.1637704050000011,"latdd":40.246267889999999,"ano_ifunc":1985,"tipo_barra":"Arco","alt_barrag":62,"supinundnp":535,"rhidro_cod":"12I/01A"}},{"type":"Feature","geometry":{"type":"Point","coordinates":[-8.3826037900764376,37.262707369377559]},"properties":{"albufeira":"Funcho","lagua":"RIO ARADE","bacia":"ARADE","distrito":"FARO","concelho":"SILVES","longdd":-8.3825849909999999,"latdd":37.262716612000006,"ano_ifunc":1993,"tipo_barra":"Abóboda","alt_barrag":48.799999999999997,"supinundnp":360,"rhidro_cod":"30G/01A"}},{"type":"Feature","geometry":{"type":"Point","coordinates":[-8.2087296214299883,38.968805621469926]},"properties":{"albufeira":"Furadouro","lagua":"RIBEIRA DA RAIA OU DE SEDA","bacia":"TEJO","distrito":"ÉVORA","concelho":"MORA","longdd":-8.2087331800000012,"latdd":38.968801341999999,"ano_ifunc":1959,"tipo_barra":"Terra homogénea","alt_barrag":17,"supinundnp":3.6000000000000001,"rhidro_cod":"20H/01AE"}},{"type":"Feature","geometry":{"type":"Point","coordinates":[-7.6498554913579948,39.389407290128844]},"properties":{"albufeira":"Gafete","lagua":"RIBEIRA DO VALE DO CASTELO","bacia":"TEJO","distrito":"PORTALEGRE","concelho":"CRATO","longdd":-7.6498790559999996,"latdd":39.389387446000001,"ano_ifunc":1980,"tipo_barra":"Terra","alt_barrag":0,"supinundnp":0,"rhidro_cod":"17L/03A"}},{"type":"Feature","geometry":{"type":"Point","coordinates":[-8.1097415407607585,38.954513879572225]},"properties":{"albufeira":"Gameiro","lagua":"RIBEIRA DA RAIA OU DE SEDA","bacia":"TEJO","distrito":"ÉVORA","concelho":"MORA","longdd":-8.1097480290000004,"latdd":38.954510744000004,"ano_ifunc":1960,"tipo_barra":"Gravidade de betão","alt_barrag":20,"supinundnp":7.2000000000000002,"rhidro_cod":"20I/01AE"}},{"type":"Feature","geometry":{"type":"Point","coordinates":[-8.477354600787951,37.712035504482586]},"properties":{"albufeira":"Gema","lagua":"RIBEIRA DA GEMA","bacia":"SADO","distrito":"BEJA","concelho":"ODEMIRA","longdd":-8.4773432549999992,"latdd":37.712046982000004,"ano_ifunc":0,"tipo_barra":" ","alt_barrag":0,"supinundnp":0,"rhidro_cod":" "}},{"type":"Feature","geometry":{"type":"Point","coordinates":[-8.3395002198682722,41.430438204921415]},"properties":{"albufeira":"Giestal","lagua":"RIO SELHO","bacia":"AVE/LEÇA","distrito":"BRAGA","concelho":"GUIMARÃES","longdd":-8.3395030429999988,"latdd":41.430455490999996,"ano_ifunc":1941,"tipo_barra":" ","alt_barrag":0,"supinundnp":0,"rhidro_cod":" "}},{"type":"Feature","geometry":{"type":"Point","coordinates":[-6.819259225160561,41.786175380752354]},"properties":{"albufeira":"Gostei","lagua":" ","bacia":"DOURO","distrito":"BRAGANÇA","concelho":"BRAGANÇA","longdd":-6.819220799,"latdd":41.786176015999999,"ano_ifunc":1993,"tipo_barra":"Terra homogénea","alt_barrag":35,"supinundnp":14.9,"rhidro_cod":" "}},{"type":"Feature","geometry":{"type":"Point","coordinates":[-6.7769618904548068,41.955871569530302]},"properties":{"albufeira":"Gralhas","lagua":"RIBEIRA DAS ANDORINHAS","bacia":"DOURO","distrito":"BRAGANÇA","concelho":"BRAGANÇA","longdd":-6.776917729,"latdd":41.955874676000001,"ano_ifunc":1995,"tipo_barra":"Gravidade de betão","alt_barrag":0,"supinundnp":0,"rhidro_cod":" "}},{"type":"Feature","geometry":{"type":"Point","coordinates":[-7.9481528840920728,37.879528831773179]},"properties":{"albufeira":"Grous","lagua":"BARRANCO DAS VENDAS","bacia":"GUADIANA","distrito":"BEJA","concelho":"BEJA","longdd":-7.9481437910000006,"latdd":37.879541714999995,"ano_ifunc":1965,"tipo_barra":"Terra","alt_barrag":0,"supinundnp":0,"rhidro_cod":" "}},{"type":"Feature","geometry":{"type":"Point","coordinates":[-8.5006402677142763,38.153604966822392]},"properties":{"albufeira":"Grândola","lagua":"RIBEIRA DE GRÂNDOLA","bacia":"SADO","distrito":"SETÚBAL","concelho":"GRÂNDOLA","longdd":-8.5006323100000003,"latdd":38.153618538999993,"ano_ifunc":0,"tipo_barra":" ","alt_barrag":0,"supinundnp":0,"rhidro_cod":" "}},{"type":"Feature","geometry":{"type":"Point","coordinates":[-8.1376696719068065,41.585541689243598]},"properties":{"albufeira":"Guilhofrei","lagua":"RIO AVE","bacia":"AVE","distrito":"BRAGA","concelho":"VIEIRA DO MINHO","longdd":-8.1376648860000014,"latdd":41.585559428000003,"ano_ifunc":1938,"tipo_barra":"Gravidade de betão","alt_barrag":49,"supinundnp":163,"rhidro_cod":"04I/01AE"}},{"type":"Feature","geometry":{"type":"Point","coordinates":[-7.4519812970939761,37.907818247696952]},"properties":{"albufeira":"H. Facho I","lagua":"BARRANCO DE JOAO BILHEIRO","bacia":"GUADIANA","distrito":"BEJA","concelho":"SERPA","longdd":-7.4519736000000005,"latdd":37.907836620000005,"ano_ifunc":1954,"tipo_barra":"Terra","alt_barrag":0,"supinundnp":0,"rhidro_cod":" "}},{"type":"Feature","geometry":{"type":"Point","coordinates":[-7.4400809873294422,37.901243987638104]},"properties":{"albufeira":"H. Facho II","lagua":" ","bacia":"GUADIANA","distrito":"BEJA","concelho":"SERPA","longdd":-7.4400731770000004,"latdd":37.901262584000001,"ano_ifunc":1955,"tipo_barra":"Terra","alt_barrag":18,"supinundnp":0,"rhidro_cod":" "}},{"type":"Feature","geometry":{"type":"Point","coordinates":[-7.8792265804407258,37.789721479858017]},"properties":{"albufeira":"Herdade Lagos I","lagua":"BARRANCO DO VALE LARANJO","bacia":"GUADIANA","distrito":"BEJA","concelho":"MÉRTOLA","longdd":-7.8792172489999999,"latdd":37.789733832000003,"ano_ifunc":0,"tipo_barra":"Terra","alt_barrag":8,"supinundnp":0,"rhidro_cod":" "}},{"type":"Feature","geometry":{"type":"Point","coordinates":[-7.8586938213652999,37.79456756066174]},"properties":{"albufeira":"Herdade Lagos II","lagua":"BARRANCO DO VALE LARANJO","bacia":"GUADIANA","distrito":"BEJA","concelho":"MÉRTOLA","longdd":-7.8586848420000006,"latdd":37.794580037999999,"ano_ifunc":0,"tipo_barra":"Terra","alt_barrag":8,"supinundnp":0,"rhidro_cod":" "}},{"type":"Feature","geometry":{"type":"Point","coordinates":[-8.2149759738078743,38.354869810804743]},"properties":{"albufeira":"Herdade Vale da Lameira (Part.)","lagua":"RIBEIRA DA URSA","bacia":"SADO","distrito":"ÉVORA","concelho":"VIANA DO ALENTEJO","longdd":-8.2149728730000007,"latdd":38.354882097999997,"ano_ifunc":0,"tipo_barra":" ","alt_barrag":0,"supinundnp":0,"rhidro_cod":" "}},{"type":"Feature","geometry":{"type":"Point","coordinates":[-7.2013865297310069,39.945106797509638]},"properties":{"albufeira":"Idanha","lagua":"RIO PÔNSUL","bacia":"TEJO","distrito":"CASTELO BRANCO","concelho":"IDANHA-A-NOVA","longdd":-7.2014033550000001,"latdd":39.945085239999997,"ano_ifunc":1947,"tipo_barra":"Gravidade de betão","alt_barrag":51,"supinundnp":678,"rhidro_cod":"14N/01A"}},{"type":"Feature","geometry":{"type":"Point","coordinates":[-7.7875891689971013,40.08538669447357]},"properties":{"albufeira":"Janeiro de Cima","lagua":"RIO ZÊZERE","bacia":"TEJO","distrito":"CASTELO BRANCO","concelho":"FUNDÃO","longdd":-7.7875974120000002,"latdd":40.085373940999993,"ano_ifunc":1995,"tipo_barra":" ","alt_barrag":0,"supinundnp":0,"rhidro_cod":" "}},{"type":"Feature","geometry":{"type":"Point","coordinates":[-7.649245549560292,40.363978336097759]},"properties":{"albufeira":"Lagoa Comprida","lagua":"RIBEIRA DA CANICA OU DA LAGOA OU DA PRAGUEIRA","bacia":"MONDEGO","distrito":"GUARDA","concelho":"SEIA","longdd":-7.6492499840000008,"latdd":40.363965223000001,"ano_ifunc":1966,"tipo_barra":"Gravidade de betão","alt_barrag":29,"supinundnp":75,"rhidro_cod":"11L/03AE"}},{"type":"Feature","geometry":{"type":"Point","coordinates":[-7.6202823528061181,40.386141598389912]},"properties":{"albufeira":"Lagoacho","lagua":"RIBEIRA DO COVAO DO URSO OU DA NAVE DESCIDA OU DAS NAVES","bacia":"MONDEGO","distrito":"GUARDA","concelho":"SEIA","longdd":-7.6202855210000005,"latdd":40.386129013999998,"ano_ifunc":1993,"tipo_barra":"Enrocamento com cortina a montante","alt_barrag":38,"supinundnp":23.699999999999999,"rhidro_cod":"11L/01AE"}},{"type":"Feature","geometry":{"type":"Point","coordinates":[-7.3526392990662748,41.203306464428174]},"properties":{"albufeira":"Linhares","lagua":"RIBEIRA DE LINHARES","bacia":"DOURO","distrito":"BRAGANÇA","concelho":"CARRAZEDA DE ANSIÃES","longdd":-7.352622223,"latdd":41.203305944,"ano_ifunc":0,"tipo_barra":" ","alt_barrag":0,"supinundnp":0,"rhidro_cod":" "}},{"type":"Feature","geometry":{"type":"Point","coordinates":[-7.405990760797458,38.635764640546306]},"properties":{"albufeira":"Lucefecit","lagua":"RIBEIRA LUCEFÉCIT","bacia":"GUADIANA","distrito":"ÉVORA","concelho":"ALANDROAL","longdd":-7.4060166110000001,"latdd":38.635780658000002,"ano_ifunc":1982,"tipo_barra":"Terra zonada","alt_barrag":23,"supinundnp":169,"rhidro_cod":"22M/01A"}},{"type":"Feature","geometry":{"type":"Point","coordinates":[-7.7440286371660871,37.461988316376846]},"properties":{"albufeira":"Lutão","lagua":"BARRANCO GRANDE","bacia":"GUADIANA","distrito":"FARO","concelho":"ALCOUTIM","longdd":-7.7440124169999995,"latdd":37.461997854000003,"ano_ifunc":0,"tipo_barra":"Terra","alt_barrag":14,"supinundnp":0,"rhidro_cod":" "}},{"type":"Feature","geometry":{"type":"Point","coordinates":[-8.6905509742875307,38.994891726926525]},"properties":{"albufeira":"Magos (Paúl Magos)","lagua":"RIBEIRA DE MAGOS","bacia":"TEJO","distrito":"SANTARÉM","concelho":"SALVATERRA DE MAGOS","longdd":-8.6905460490000017,"latdd":38.994884331999998,"ano_ifunc":1938,"tipo_barra":"Terra homogénea","alt_barrag":17,"supinundnp":124,"rhidro_cod":"20E/01A"}},{"type":"Feature","geometry":{"type":"Point","coordinates":[-7.9758634798569776,39.014962112156766]},"properties":{"albufeira":"Maranhão","lagua":"RIBEIRA DA RAIA OU DE SEDA","bacia":"TEJO","distrito":"PORTALEGRE","concelho":"AVIS","longdd":-7.975874643,"latdd":39.014957251999995,"ano_ifunc":1957,"tipo_barra":"Terra zonada","alt_barrag":55,"supinundnp":1960,"rhidro_cod":"19J/01A"}},{"type":"Feature","geometry":{"type":"Point","coordinates":[-7.1434731867706667,40.260508423886812]},"properties":{"albufeira":"Meimoa","lagua":"RIBEIRA DA MEIMOA","bacia":"TEJO","distrito":"CASTELO BRANCO","concelho":"PENAMACOR","longdd":-7.1434797740000002,"latdd":40.260489062999994,"ano_ifunc":1985,"tipo_barra":"Terra zonada","alt_barrag":56,"supinundnp":222,"rhidro_cod":"12O/01A"}},{"type":"Feature","geometry":{"type":"Point","coordinates":[-7.2062300336396508,41.839402662290631]},"properties":{"albufeira":"Mente","lagua":"RIO MENTE","bacia":"DOURO","distrito":"BRAGANÇA","concelho":"VINHAIS","longdd":-7.2061936290000004,"latdd":41.839411257999998,"ano_ifunc":0,"tipo_barra":"Arco Abóboda","alt_barrag":0,"supinundnp":0,"rhidro_cod":" "}},{"type":"Feature","geometry":{"type":"Point","coordinates":[-8.0975678184710382,38.659031421134983]},"properties":{"albufeira":"Minutos","lagua":"RIO ALMANSOR OU RIBEIRA DE SANTO ESTEVÃO OU DE CANHA","bacia":"TEJO","distrito":"ÉVORA","concelho":"MONTEMOR-O-NOVO","longdd":-8.0975720870000014,"latdd":38.659038424000002,"ano_ifunc":2003,"tipo_barra":"Terra homogénea","alt_barrag":36,"supinundnp":530,"rhidro_cod":"22I/01AE"}},{"type":"Feature","geometry":{"type":"Point","coordinates":[-6.2639793693658223,41.48906223842252]},"properties":{"albufeira":"Miranda","lagua":"RIO DOURO","bacia":"DOURO","distrito":"BRAGANÇA","concelho":"MIRANDA DO DOURO","longdd":-6.2639421989999997,"latdd":41.489049236,"ano_ifunc":1961,"tipo_barra":"Contrafortes","alt_barrag":80,"supinundnp":122,"rhidro_cod":"05T/01A"}},{"type":"Feature","geometry":{"type":"Point","coordinates":[-8.1753164573214097,39.053171668039234]},"properties":{"albufeira":"Montargil","lagua":"RIO SÔR","bacia":"TEJO","distrito":"PORTALEGRE","concelho":"PONTE DE SOR","longdd":-8.1753219850000001,"latdd":39.053165708999998,"ano_ifunc":1958,"tipo_barra":"Terra zonada","alt_barrag":48,"supinundnp":1495,"rhidro_cod":"19H/01A"}},{"type":"Feature","geometry":{"type":"Point","coordinates":[-8.0607608844263243,37.496931776247123]},"properties":{"albufeira":"Monte Clérigo","lagua":"BARRANCO DOS TOUCINHOS","bacia":"GUADIANA","distrito":"BEJA","concelho":"ALMODÔVAR","longdd":-8.0607475620000013,"latdd":37.496942886999996,"ano_ifunc":0,"tipo_barra":"Terra","alt_barrag":10,"supinundnp":0,"rhidro_cod":"29I/01A"}},{"type":"Feature","geometry":{"type":"Point","coordinates":[-8.237014760346602,37.790713197304676]},"properties":{"albufeira":"Monte Gato","lagua":"RIBEIRA DA FERRARIA OU BARRANCO DO MONTE DO GATO","bacia":"SADO","distrito":"BEJA","concelho":"OURIQUE","longdd":-8.2370029960000011,"latdd":37.790725784000003,"ano_ifunc":1991,"tipo_barra":"Terra","alt_barrag":13,"supinundnp":18,"rhidro_cod":"27H/02AE"}},{"type":"Feature","geometry":{"type":"Point","coordinates":[-8.2643501048690631,37.789046110775118]},"properties":{"albufeira":"Monte Migueis","lagua":"RIBEIRA DOS MIGUEIS","bacia":"SADO","distrito":"BEJA","concelho":"OURIQUE","longdd":-8.2643380110000013,"latdd":37.789058660000002,"ano_ifunc":1991,"tipo_barra":"Terra","alt_barrag":11,"supinundnp":27,"rhidro_cod":"27H/03AE"}},{"type":"Feature","geometry":{"type":"Point","coordinates":[-7.7099599243958057,38.511191006323784]},"properties":{"albufeira":"Monte Novo","lagua":"RIO DEGEBE","bacia":"GUADIANA","distrito":"ÉVORA","concelho":"ÉVORA","longdd":-7.7099713440000004,"latdd":38.511203036000005,"ano_ifunc":1982,"tipo_barra":"Gravidade de betão","alt_barrag":30,"supinundnp":277.39999999999998,"rhidro_cod":"22K/01A"}},{"type":"Feature","geometry":{"type":"Point","coordinates":[-8.0858533387138909,40.130358515721845]},"properties":{"albufeira":"Monte Redondo","lagua":"RIO CEIRA","bacia":"MONDEGO","distrito":"COIMBRA","concelho":"GÓIS","longdd":-8.0858595700000002,"latdd":40.130349256999992,"ano_ifunc":1950,"tipo_barra":" ","alt_barrag":0,"supinundnp":0,"rhidro_cod":" "}},{"type":"Feature","geometry":{"type":"Point","coordinates":[-8.2870657597805746,37.728393539451183]},"properties":{"albufeira":"Monte da Rocha","lagua":"RIO SADO","bacia":"SADO","distrito":"BEJA","concelho":"OURIQUE","longdd":-8.2870535210000007,"latdd":37.728405836,"ano_ifunc":1972,"tipo_barra":"Terra zonada","alt_barrag":55,"supinundnp":1100,"rhidro_cod":"27H/01A"}},{"type":"Feature","geometry":{"type":"Point","coordinates":[-6.7471529465943778,41.871908896388589]},"properties":{"albufeira":"Montezinho","lagua":"RIO SABOR","bacia":"DOURO","distrito":"BRAGANÇA","concelho":"BRAGANÇA","longdd":-6.747110954,"latdd":41.871909959999996,"ano_ifunc":1995,"tipo_barra":"Gravidade de betão","alt_barrag":0,"supinundnp":0,"rhidro_cod":" "}},{"type":"Feature","geometry":{"type":"Point","coordinates":[-8.761245670645506,37.897719591230882]},"properties":{"albufeira":"Morgavel","lagua":"RIBEIRA DE MORGAVÉL","bacia":"RIBEIRAS DO ALENTEJO","distrito":"SETÚBAL","concelho":"SINES","longdd":-8.7612347190000008,"latdd":37.897728975,"ano_ifunc":1980,"tipo_barra":"Terra zonada","alt_barrag":52,"supinundnp":340,"rhidro_cod":"26E/01A"}},{"type":"Feature","geometry":{"type":"Point","coordinates":[-7.3359522606910366,38.398928123085476]},"properties":{"albufeira":"Mourão","lagua":"RIBEIRA DAS VINHAS","bacia":"GUADIANA","distrito":"ÉVORA","concelho":"MOURÃO","longdd":-7.3359666399999997,"latdd":38.398949801999997,"ano_ifunc":1955,"tipo_barra":" ","alt_barrag":0,"supinundnp":0,"rhidro_cod":" "}},{"type":"Feature","geometry":{"type":"Point","coordinates":[-8.0937249798361268,39.50789221161105]},"properties":{"albufeira":"Negrelinho","lagua":" ","bacia":"TEJO","distrito":"SANTARÉM","concelho":"ABRANTES","longdd":-8.0937318980000015,"latdd":39.507877562000004,"ano_ifunc":1976,"tipo_barra":"Terra","alt_barrag":17,"supinundnp":0,"rhidro_cod":"16I/02A"}},{"type":"Feature","geometry":{"type":"Point","coordinates":[-7.4864631043178234,37.331091300837222]},"properties":{"albufeira":"Odeleite","lagua":"RIBEIRA DE ODELEITE","bacia":"GUADIANA","distrito":"FARO","concelho":"CASTRO MARIM","longdd":-7.4864458909999998,"latdd":37.331099795,"ano_ifunc":1997,"tipo_barra":"Enrocamento com cortina a montante","alt_barrag":65,"supinundnp":720,"rhidro_cod":"30L/01A"}},{"type":"Feature","geometry":{"type":"Point","coordinates":[-8.4740296803821149,37.288311516960718]},"properties":{"albufeira":"Odelouca","lagua":"RIBEIRA DE ODELOUCA","bacia":"ARADE","distrito":"FARO","concelho":"MONCHIQUE","longdd":-8.4740160000000007,"latdd":37.288316999999999,"ano_ifunc":2009,"tipo_barra":"Terra zonada","alt_barrag":0,"supinundnp":0,"rhidro_cod":"30G/11AE"}},{"type":"Feature","geometry":{"type":"Point","coordinates":[-8.1153142194591723,38.184765989845786]},"properties":{"albufeira":"Odivelas","lagua":"RIBEIRA DE ODIVELAS OU ORIOLA OU ALVITO","bacia":"SADO","distrito":"BEJA","concelho":"FERREIRA DO ALENTEJO","longdd":-8.1153090529999989,"latdd":38.184779216000003,"ano_ifunc":1972,"tipo_barra":"Abóbodas múltiplas","alt_barrag":55,"supinundnp":973,"rhidro_cod":"24I/01A"}},{"type":"Feature","geometry":{"type":"Point","coordinates":[-7.9960388141985241,37.548221392241253]},"properties":{"albufeira":"Oeiras","lagua":"RIBEIRA DE OEIRAS","bacia":"GUADIANA","distrito":"BEJA","concelho":"ALMODÔVAR","longdd":-7.9960268400000007,"latdd":37.548233280999995,"ano_ifunc":0,"tipo_barra":"Terra","alt_barrag":27,"supinundnp":0,"rhidro_cod":" "}},{"type":"Feature","geometry":{"type":"Point","coordinates":[-8.0019110427457054,41.308196322793627]},"properties":{"albufeira":"Olo","lagua":"RIO OLO","bacia":"DOURO","distrito":"PORTO","concelho":"AMARANTE","longdd":-8.001906631999999,"latdd":41.308204201999999,"ano_ifunc":1949,"tipo_barra":"Gravidade de betão","alt_barrag":0,"supinundnp":0,"rhidro_cod":" "}},{"type":"Feature","geometry":{"type":"Point","coordinates":[-8.3518528083886618,40.851321291768777]},"properties":{"albufeira":"Padrastos","lagua":"RIO CAIMA","bacia":"VOUGA/RIBEIRAS COSTEIRAS","distrito":"AVEIRO","concelho":"VALE DE CAMBRA","longdd":-8.3518615730000008,"latdd":40.851322347,"ano_ifunc":1965,"tipo_barra":" ","alt_barrag":0,"supinundnp":0,"rhidro_cod":" "}},{"type":"Feature","geometry":{"type":"Point","coordinates":[-7.8115439490901242,41.572277569648016]},"properties":{"albufeira":"Padroselos (prevista)","lagua":"RIO BEÇA","bacia":"DOURO","distrito":"VILA REAL","concelho":"RIBEIRA DE PENA","longdd":-7.8115302699999996,"latdd":41.572290426999999,"ano_ifunc":0,"tipo_barra":"Arco Abóboda","alt_barrag":87,"supinundnp":0,"rhidro_cod":" "}},{"type":"Feature","geometry":{"type":"Point","coordinates":[-7.1764493687463835,41.22933464022541]},"properties":{"albufeira":"Palameiro","lagua":"RIBEIRA DAS TABUAS","bacia":"DOURO","distrito":"BRAGANÇA","concelho":"TORRE DE MONCORVO","longdd":-7.1764296550000006,"latdd":41.229332120999999,"ano_ifunc":1992,"tipo_barra":"Terra","alt_barrag":20,"supinundnp":0,"rhidro_cod":" "}},{"type":"Feature","geometry":{"type":"Point","coordinates":[-8.240013022337509,42.043558805536307]},"properties":{"albufeira":"Parada Monte","lagua":"RIO MOURO","bacia":"MINHO/ÂNCORA","distrito":"VIANA DO CASTELO","concelho":"MELGAÇO","longdd":-8.2400021849999998,"latdd":42.043593430999998,"ano_ifunc":0,"tipo_barra":"Gravidade de betão","alt_barrag":0,"supinundnp":0,"rhidro_cod":" "}},{"type":"Feature","geometry":{"type":"Point","coordinates":[-7.950126033954561,41.76688516746853]},"properties":{"albufeira":"Paradela","lagua":"RIO CÁVADO","bacia":"CÁVADO/RIBEIRAS COSTEIRAS","distrito":"VILA REAL","concelho":"MONTALEGRE","longdd":-7.9501109210000003,"latdd":41.766906240999994,"ano_ifunc":1956,"tipo_barra":"Enrocamento com cortina a montante","alt_barrag":112,"supinundnp":380,"rhidro_cod":"03J/01A"}},{"type":"Feature","geometry":{"type":"Point","coordinates":[-7.6723362632514656,38.554811833354606]},"properties":{"albufeira":"Pardiela","lagua":"RIBEIRA DA PARDIELA","bacia":"GUADIANA","distrito":"ÉVORA","concelho":"REDONDO","longdd":-7.6723515959999995,"latdd":38.554823544000001,"ano_ifunc":0,"tipo_barra":"Terra","alt_barrag":27,"supinundnp":0,"rhidro_cod":" "}},{"type":"Feature","geometry":{"type":"Point","coordinates":[-8.5894679930268349,39.247613476106302]},"properties":{"albufeira":"Patudos","lagua":"VALA DE ALPIARÇA OU DO PAÚL OU RIBEIRA DE ULME","bacia":"TEJO","distrito":"SANTARÉM","concelho":"ALPIARÇA","longdd":-8.5894647479999993,"latdd":39.247600670999994,"ano_ifunc":1984,"tipo_barra":"Terra","alt_barrag":0,"supinundnp":0,"rhidro_cod":"18F/03A"}},{"type":"Feature","geometry":{"type":"Point","coordinates":[-7.1741853090737644,41.295439656213716]},"properties":{"albufeira":"Peneireiro","lagua":"RIBEIRA DO ARCO","bacia":"DOURO","distrito":"BRAGANÇA","concelho":"VILA FLOR","longdd":-7.1741636489999996,"latdd":41.295438166000004,"ano_ifunc":1973,"tipo_barra":"Terra zonada","alt_barrag":15,"supinundnp":14,"rhidro_cod":"06O/01A"}},{"type":"Feature","geometry":{"type":"Point","coordinates":[-7.0153644986465258,40.045493724292974]},"properties":{"albufeira":"Penha Garcia","lagua":"RIO PÔNSUL","bacia":"TEJO","distrito":"CASTELO BRANCO","concelho":"IDANHA-A-NOVA","longdd":-7.0153791989999998,"latdd":40.045468454000002,"ano_ifunc":1978,"tipo_barra":"Gravidade de betão","alt_barrag":25,"supinundnp":20.399999999999999,"rhidro_cod":"13O/01A"}},{"type":"Feature","geometry":{"type":"Point","coordinates":[-8.0355834951330785,38.499673041074502]},"properties":{"albufeira":"Tourega","lagua":"RIBEIRA DE VALVERDE OU DE S. MATIAS","bacia":"SADO","distrito":"ÉVORA","concelho":"ÉVORA","longdd":-8.0355865520000016,"latdd":38.499682917000001,"ano_ifunc":1953,"tipo_barra":" ","alt_barrag":0,"supinundnp":0,"rhidro_cod":" "}},{"type":"Feature","geometry":{"type":"Point","coordinates":[-8.5370734938802038,41.549549224213983]},"properties":{"albufeira":"Penide","lagua":"RIO CÁVADO","bacia":"CÁVADO/RIBEIRAS COSTEIRAS","distrito":"BRAGA","concelho":"BARCELOS","longdd":-8.5370807990000017,"latdd":41.549571698999998,"ano_ifunc":1951,"tipo_barra":"Alvenaria","alt_barrag":21,"supinundnp":69,"rhidro_cod":"04F/01A"}},{"type":"Feature","geometry":{"type":"Point","coordinates":[-7.5911924560806696,37.443980518924995]},"properties":{"albufeira":"Pereiro","lagua":"BARRANCO DOS LADROES","bacia":"GUADIANA","distrito":"FARO","concelho":"ALCOUTIM","longdd":-7.5911787150000007,"latdd":37.443989324999997,"ano_ifunc":0,"tipo_barra":"Terra","alt_barrag":13,"supinundnp":0,"rhidro_cod":" "}},{"type":"Feature","geometry":{"type":"Point","coordinates":[-8.1916713872466698,37.574927857952822]},"properties":{"albufeira":"Perna Seca","lagua":"RIBEIRA DA PERNA SECA","bacia":"MIRA","distrito":"BEJA","concelho":"ALMODÔVAR","longdd":-8.1916581179999994,"latdd":37.574939618000002,"ano_ifunc":0,"tipo_barra":" ","alt_barrag":0,"supinundnp":0,"rhidro_cod":" "}},{"type":"Feature","geometry":{"type":"Point","coordinates":[-7.0991184190992698,40.947861812178978]},"properties":{"albufeira":"Pero Martins","lagua":"RIO CÔA","bacia":"DOURO","distrito":"GUARDA","concelho":"FIGUEIRA DE CASTELO RODRIGO","longdd":-7.0991042879999995,"latdd":40.947851020999998,"ano_ifunc":0,"tipo_barra":"Arco Abóboda","alt_barrag":145,"supinundnp":0,"rhidro_cod":" "}},{"type":"Feature","geometry":{"type":"Point","coordinates":[-6.3518114590831871,41.380164364474503]},"properties":{"albufeira":"Picote","lagua":"RIO DOURO","bacia":"DOURO","distrito":"BRAGANÇA","concelho":"MIRANDA DO DOURO","longdd":-6.3517790440000006,"latdd":41.380152874999993,"ano_ifunc":1958,"tipo_barra":"Arco","alt_barrag":100,"supinundnp":244,"rhidro_cod":"05S/01A"}},{"type":"Feature","geometry":{"type":"Point","coordinates":[-7.5565779332603968,40.021728055968595]},"properties":{"albufeira":"Pisco","lagua":"RIO RAMALHOSO","bacia":"TEJO","distrito":"CASTELO BRANCO","concelho":"CASTELO BRANCO","longdd":-7.5565914769999996,"latdd":40.021711540000005,"ano_ifunc":1968,"tipo_barra":"Terra homogénea","alt_barrag":24.5,"supinundnp":19.800000000000001,"rhidro_cod":"13L/02A"}},{"type":"Feature","geometry":{"type":"Point","coordinates":[-7.1143133044199098,41.135225519887186]},"properties":{"albufeira":"Pocinho","lagua":"RIO DOURO","bacia":"DOURO","distrito":"BRAGANÇA","concelho":"TORRE DE MONCORVO","longdd":-7.1142954779999998,"latdd":41.135220511999997,"ano_ifunc":1982,"tipo_barra":"Gravidade de betão","alt_barrag":49,"supinundnp":829,"rhidro_cod":"07O/02A"}},{"type":"Feature","geometry":{"type":"Point","coordinates":[-7.5820783756465753,39.516014215150143]},"properties":{"albufeira":"Poio","lagua":"RIBEIRA DE NISA","bacia":"TEJO","distrito":"PORTALEGRE","concelho":"NISA","longdd":-7.5821052190000007,"latdd":39.515993123000001,"ano_ifunc":1932,"tipo_barra":"Gravidade de betão","alt_barrag":18,"supinundnp":110,"rhidro_cod":"16L/01AE"}},{"type":"Feature","geometry":{"type":"Point","coordinates":[-7.8623698654799252,40.861247297085782]},"properties":{"albufeira":"Portela","lagua":"RIO PAIVA","bacia":"DOURO","distrito":"VISEU","concelho":"CASTRO DAIRE","longdd":-7.8623706790000005,"latdd":40.861245814999997,"ano_ifunc":0,"tipo_barra":"Arco Abóboda","alt_barrag":105,"supinundnp":0,"rhidro_cod":" "}},{"type":"Feature","geometry":{"type":"Point","coordinates":[-7.8120210960578014,39.56505685202449]},"properties":{"albufeira":"Pracana","lagua":"RIO OCREZA","bacia":"TEJO","distrito":"SANTARÉM","concelho":"MAÇÃO","longdd":-7.8120317779999997,"latdd":39.565040585999995,"ano_ifunc":1950,"tipo_barra":"Contrafortes","alt_barrag":60,"supinundnp":550,"rhidro_cod":"16K/01A"}},{"type":"Feature","geometry":{"type":"Point","coordinates":[-8.3920176238230084,38.418690990827997]},"properties":{"albufeira":"Pêgo do Altar","lagua":"RIBEIRA DE ALCÁÇOVAS","bacia":"SADO","distrito":"SETÚBAL","concelho":"ALCÁCER DO SAL","longdd":-8.3920138099999999,"latdd":38.418701966,"ano_ifunc":1949,"tipo_barra":"Enrocamento com cortina a montante","alt_barrag":63,"supinundnp":655,"rhidro_cod":"23G/01A"}},{"type":"Feature","geometry":{"type":"Point","coordinates":[-7.5553410948705606,39.476949120744692]},"properties":{"albufeira":"Póvoa","lagua":"RIBEIRA DE NISA","bacia":"TEJO","distrito":"PORTALEGRE","concelho":"CASTELO DE VIDE","longdd":-7.5553688640000001,"latdd":39.476927164000003,"ano_ifunc":1928,"tipo_barra":"Arco Gravidade","alt_barrag":32,"supinundnp":236,"rhidro_cod":"17L/01A"}},{"type":"Feature","geometry":{"type":"Point","coordinates":[-8.1634712317479732,41.503228206454253]},"properties":{"albufeira":"Queimadela","lagua":"RIO VIZELA","bacia":"AVE/LEÇA","distrito":"BRAGA","concelho":"FAFE","longdd":-8.1634688390000001,"latdd":41.503243974,"ano_ifunc":1993,"tipo_barra":"Gravidade de betão","alt_barrag":0,"supinundnp":11,"rhidro_cod":" "}},{"type":"Feature","geometry":{"type":"Point","coordinates":[-7.0597970499067735,41.20809470411465]},"properties":{"albufeira":"Quinta das Laranjeiras (não construída)","lagua":"RIO SABOR","bacia":"DOURO","distrito":"BRAGANÇA","concelho":"TORRE DE MONCORVO","longdd":-7.0597763159999998,"latdd":41.208090530999996,"ano_ifunc":0,"tipo_barra":"Arco Abóboda","alt_barrag":116,"supinundnp":0,"rhidro_cod":" "}},{"type":"Feature","geometry":{"type":"Point","coordinates":[-7.6134687521054634,39.539143376707926]},"properties":{"albufeira":"Racheiro","lagua":"RIBEIRA DE NISA","bacia":"TEJO","distrito":"PORTALEGRE","concelho":"NISA","longdd":-7.6134928159999999,"latdd":39.539122708999997,"ano_ifunc":0,"tipo_barra":"Gravidade de betão","alt_barrag":0,"supinundnp":0,"rhidro_cod":" "}},{"type":"Feature","geometry":{"type":"Point","coordinates":[-8.2489491642894262,40.309701101106327]},"properties":{"albufeira":"Raiva","lagua":"RIO MONDEGO","bacia":"MONDEGO","distrito":"COIMBRA","concelho":"PENACOVA","longdd":-8.248956306000002,"latdd":40.309694305000001,"ano_ifunc":1981,"tipo_barra":"Gravidade de betão","alt_barrag":36,"supinundnp":230,"rhidro_cod":"12H/01A"}},{"type":"Feature","geometry":{"type":"Point","coordinates":[-7.3352647445134753,41.008214502640406]},"properties":{"albufeira":"Ranhados","lagua":"RIO TORTO 1","bacia":"DOURO","distrito":"GUARDA","concelho":"MÊDA","longdd":-7.3352545090000003,"latdd":41.008209516999997,"ano_ifunc":1986,"tipo_barra":"Gravidade de betão","alt_barrag":41.399999999999999,"supinundnp":17.800000000000001,"rhidro_cod":"07M/01A"}},{"type":"Feature","geometry":{"type":"Point","coordinates":[-7.7906553881477745,38.298797746937666]},"properties":{"albufeira":"Rasquinha (Part.)","lagua":"RIBEIRA DA BALSA","bacia":"SADO","distrito":"ÉVORA","concelho":"PORTEL","longdd":-7.790656235000001,"latdd":38.298811227999998,"ano_ifunc":0,"tipo_barra":" ","alt_barrag":0,"supinundnp":0,"rhidro_cod":" "}},{"type":"Feature","geometry":{"type":"Point","coordinates":[-7.1766625810863651,41.755856896863499]},"properties":{"albufeira":"Rebordelo","lagua":"RIBEIRA DO CANTO","bacia":"DOURO","distrito":"BRAGANÇA","concelho":"VINHAIS","longdd":-7.1766273839999997,"latdd":41.755863188999996,"ano_ifunc":2004,"tipo_barra":"Arco Gravidade","alt_barrag":35.5,"supinundnp":46,"rhidro_cod":" "}},{"type":"Feature","geometry":{"type":"Point","coordinates":[-6.9307389442960616,40.698317038020704]},"properties":{"albufeira":"Riba Côa","lagua":"RIO CÔA","bacia":"DOURO","distrito":"GUARDA","concelho":"ALMEIDA","longdd":-6.9307300420000004,"latdd":40.698297994999997,"ano_ifunc":0,"tipo_barra":" ","alt_barrag":4,"supinundnp":6,"rhidro_cod":" "}},{"type":"Feature","geometry":{"type":"Point","coordinates":[-9.422084667003924,38.76412074524869]},"properties":{"albufeira":"Rio da Mula","lagua":"RIBEIRA DAS VINHAS","bacia":"RIBEIRAS DO OESTE","distrito":"LISBOA","concelho":"CASCAIS","longdd":-9.4220644790000012,"latdd":38.764116506000001,"ano_ifunc":1969,"tipo_barra":"Mistas de betão e aterro","alt_barrag":22,"supinundnp":4.5,"rhidro_cod":"21A/01A"}},{"type":"Feature","geometry":{"type":"Point","coordinates":[-8.0819030271712773,37.929591484792269]},"properties":{"albufeira":"Roxo","lagua":"RIBEIRA DO ROXO OU DE SANTA VITÓRIA","bacia":"SADO","distrito":"BEJA","concelho":"ALJUSTREL","longdd":-8.0818943250000004,"latdd":37.929604974,"ano_ifunc":1967,"tipo_barra":"Contrafortes","alt_barrag":49,"supinundnp":1378,"rhidro_cod":"26I/01A"}},{"type":"Feature","geometry":{"type":"Point","coordinates":[-8.4800238370835608,41.585227998036473]},"properties":{"albufeira":"Ruães","lagua":"RIO CÁVADO","bacia":"CÁVADO/RIBEIRAS COSTEIRAS","distrito":"BRAGA","concelho":"VILA VERDE","longdd":-8.4800343409999996,"latdd":41.585252288999996,"ano_ifunc":1928,"tipo_barra":" ","alt_barrag":0,"supinundnp":0,"rhidro_cod":"05G/01AE"}},{"type":"Feature","geometry":{"type":"Point","coordinates":[-8.1544699931586226,40.508658778268511]},"properties":{"albufeira":"Rãs","lagua":"RIO DO BARREIRO OU DE CASTELOES","bacia":"MONDEGO","distrito":"VISEU","concelho":"TONDELA","longdd":-8.1544767870000019,"latdd":40.508653905999999,"ano_ifunc":1973,"tipo_barra":" ","alt_barrag":8,"supinundnp":0,"rhidro_cod":" "}},{"type":"Feature","geometry":{"type":"Point","coordinates":[-7.7398640051301095,41.146234642153047]},"properties":{"albufeira":"Régua","lagua":"RIO DOURO","bacia":"DOURO","distrito":"VILA REAL","concelho":"PESO DA RÉGUA","longdd":-7.7398588450000005,"latdd":41.146236682000001,"ano_ifunc":1973,"tipo_barra":"Gravidade de betão","alt_barrag":41,"supinundnp":850,"rhidro_cod":"07K/01A"}},{"type":"Feature","geometry":{"type":"Point","coordinates":[-8.1529609261167746,38.329599952481232]},"properties":{"albufeira":"S. Brissos 1 (Part.)","lagua":"RIBEIRA DO XARRAMA","bacia":"SADO","distrito":"ÉVORA","concelho":"VIANA DO ALENTEJO","longdd":-8.1529581720000017,"latdd":38.329612974999996,"ano_ifunc":0,"tipo_barra":" ","alt_barrag":0,"supinundnp":0,"rhidro_cod":" "}},{"type":"Feature","geometry":{"type":"Point","coordinates":[-9.3175566292799363,39.334653776138168]},"properties":{"albufeira":"S. Domingos","lagua":"RIO DE SÃO DOMINGOS","bacia":"RIBEIRAS DO OESTE","distrito":"LEIRIA","concelho":"PENICHE","longdd":-9.3175460820000016,"latdd":39.334637334,"ano_ifunc":1993,"tipo_barra":"Enrocamento com núcleo","alt_barrag":39,"supinundnp":96,"rhidro_cod":"17B/01A"}},{"type":"Feature","geometry":{"type":"Point","coordinates":[-7.0916293558805643,40.336131097470023]},"properties":{"albufeira":"Sabugal","lagua":"RIO CÔA","bacia":"DOURO","distrito":"GUARDA","concelho":"SABUGAL","longdd":-7.0916332789999998,"latdd":40.336111645999999,"ano_ifunc":2000,"tipo_barra":"Terra","alt_barrag":58.5,"supinundnp":732,"rhidro_cod":" "}},{"type":"Feature","geometry":{"type":"Point","coordinates":[-8.2595800192640052,38.624016193009467]},"properties":{"albufeira":"Sabugueiro","lagua":"RIBEIRA DA LAGE","bacia":"TEJO","distrito":"ÉVORA","concelho":"MONTEMOR-O-NOVO","longdd":-8.2595765060000002,"latdd":38.624022941,"ano_ifunc":0,"tipo_barra":"Terra","alt_barrag":6,"supinundnp":0,"rhidro_cod":" "}},{"type":"Feature","geometry":{"type":"Point","coordinates":[-8.1181471056015031,38.759470471081855]},"properties":{"albufeira":"Sabugueiro (Arraiolos)","lagua":"RIBEIRA DA NEGRAXA","bacia":"TEJO","distrito":"ÉVORA","concelho":"ARRAIOLOS","longdd":-8.1181512520000005,"latdd":38.759473935999999,"ano_ifunc":0,"tipo_barra":"Terra","alt_barrag":6,"supinundnp":0,"rhidro_cod":" "}},{"type":"Feature","geometry":{"type":"Point","coordinates":[-8.0915569030649284,41.69143087145261]},"properties":{"albufeira":"Salamonde","lagua":"RIO CÁVADO","bacia":"CÁVADO/RIBEIRAS COSTEIRAS","distrito":"BRAGA","concelho":"VIEIRA DO MINHO","longdd":-8.0915477530000004,"latdd":41.691451479000001,"ano_ifunc":1953,"tipo_barra":"Arco Abóboda","alt_barrag":75,"supinundnp":242,"rhidro_cod":"03I/01A"}},{"type":"Feature","geometry":{"type":"Point","coordinates":[-7.0536946365080269,41.33501717010413]},"properties":{"albufeira":"Salgueiro","lagua":"RIBEIRA DE VILARICA","bacia":"DOURO","distrito":"BRAGANÇA","concelho":"ALFÂNDEGA DA FÉ","longdd":-7.0536706589999998,"latdd":41.335015134999999,"ano_ifunc":1977,"tipo_barra":"Terra homogénea","alt_barrag":28,"supinundnp":22,"rhidro_cod":"06O/02A"}},{"type":"Feature","geometry":{"type":"Point","coordinates":[-6.686383805998898,41.443922725324221]},"properties":{"albufeira":"Sampaio","lagua":"RIO SABOR","bacia":"DOURO","distrito":"BRAGANÇA","concelho":"MOGADOURO","longdd":-6.6863511000000004,"latdd":41.443916911999999,"ano_ifunc":0,"tipo_barra":"Arco Abóboda","alt_barrag":147,"supinundnp":0,"rhidro_cod":" "}},{"type":"Feature","geometry":{"type":"Point","coordinates":[-8.4413067352911835,37.513109520247603]},"properties":{"albufeira":"Santa Clara","lagua":"RIO MIRA","bacia":"MIRA","distrito":"BEJA","concelho":"ODEMIRA","longdd":-8.441294976,"latdd":37.513121618999996,"ano_ifunc":1968,"tipo_barra":"Terra zonada","alt_barrag":87,"supinundnp":1986,"rhidro_cod":"28G/01A"}},{"type":"Feature","geometry":{"type":"Point","coordinates":[-6.8897702322736833,40.864383350831325]},"properties":{"albufeira":"Santa Maria de Aguiar","lagua":"RIBEIRA DE AGUIAR","bacia":"DOURO","distrito":"GUARDA","concelho":"FIGUEIRA DE CASTELO RODRIGO","longdd":-6.8897545070000001,"latdd":40.864367094000002,"ano_ifunc":1981,"tipo_barra":"Terra homogénea","alt_barrag":20,"supinundnp":110,"rhidro_cod":"08P/01A"}},{"type":"Feature","geometry":{"type":"Point","coordinates":[-8.5752477967313574,39.311079672760663]},"properties":{"albufeira":"Santarém","lagua":"RIO TEJO","bacia":"TEJO","distrito":"SANTARÉM","concelho":"CHAMUSCA","longdd":-8.575248332000001,"latdd":39.311068072999994,"ano_ifunc":0,"tipo_barra":"Gravidade de betão","alt_barrag":0,"supinundnp":0,"rhidro_cod":" "}},{"type":"Feature","geometry":{"type":"Point","coordinates":[-8.2693153483944837,42.122758642680218]},"properties":{"albufeira":"Sela","lagua":"RIO MINHO","bacia":"MINHO/ÂNCORA","distrito":"VIANA DO CASTELO","concelho":"MELGAÇO","longdd":-8.2693042719999994,"latdd":42.122795898999996,"ano_ifunc":0,"tipo_barra":"Gravidade de betão","alt_barrag":0,"supinundnp":0,"rhidro_cod":" "}},{"type":"Feature","geometry":{"type":"Point","coordinates":[-6.7722521677878369,41.961262466950679]},"properties":{"albufeira":"Serra Serrada","lagua":"RIBEIRA DAS ANDORINHAS","bacia":"DOURO","distrito":"BRAGANÇA","concelho":"BRAGANÇA","longdd":-6.772207815999999,"latdd":41.961265611999998,"ano_ifunc":1989,"tipo_barra":"Gravidade de betão","alt_barrag":25,"supinundnp":25,"rhidro_cod":"02Q/01A"}},{"type":"Feature","geometry":{"type":"Point","coordinates":[-7.7887498922364129,41.269663728943584]},"properties":{"albufeira":"Sordo","lagua":"RIO SORDO","bacia":"DOURO","distrito":"VILA REAL","concelho":"VILA REAL","longdd":-7.7887426870000001,"latdd":41.269668916999997,"ano_ifunc":1997,"tipo_barra":"Gravidade de betão","alt_barrag":36,"supinundnp":8.4000000000000004,"rhidro_cod":"06K/01A"}},{"type":"Feature","geometry":{"type":"Point","coordinates":[-7.0189881462599688,40.802850578760946]},"properties":{"albufeira":"Srª Monforte","lagua":"RIO CÔA","bacia":"DOURO","distrito":"GUARDA","concelho":"PINHEL","longdd":-7.0189763630000011,"latdd":40.802835496,"ano_ifunc":1993,"tipo_barra":"Gravidade de betão","alt_barrag":20,"supinundnp":2.2999999999999998,"rhidro_cod":" "}},{"type":"Feature","geometry":{"type":"Point","coordinates":[-7.8581558112234715,40.08970854586277]},"properties":{"albufeira":"Sta. Luzia","lagua":"RIBEIRA DE UNHAIS OU PAMPILHOSA","bacia":"TEJO","distrito":"COIMBRA","concelho":"PAMPILHOSA DA SERRA","longdd":-7.8581637959999995,"latdd":40.089696284999995,"ano_ifunc":1942,"tipo_barra":"Arco","alt_barrag":76,"supinundnp":246,"rhidro_cod":"13J/01A"}},{"type":"Feature","geometry":{"type":"Point","coordinates":[-7.4809865357955445,39.968806424125269]},"properties":{"albufeira":"Sta. Águeda (Marateca)","lagua":"RIO OCREZA","bacia":"TEJO","distrito":"CASTELO BRANCO","concelho":"CASTELO BRANCO","longdd":-7.4810012089999995,"latdd":39.968788304999997,"ano_ifunc":1991,"tipo_barra":"Terra homogénea","alt_barrag":25,"supinundnp":634,"rhidro_cod":"14M/01A"}},{"type":"Feature","geometry":{"type":"Point","coordinates":[-8.1786892452979885,41.397547879749801]},"properties":{"albufeira":"Sumidouro","lagua":"RIO BUGIO","bacia":"AVE/LEÇA","distrito":"BRAGA","concelho":"FAFE","longdd":-8.1786884979999996,"latdd":41.397561252000003,"ano_ifunc":1972,"tipo_barra":" ","alt_barrag":0,"supinundnp":0,"rhidro_cod":" "}},{"type":"Feature","geometry":{"type":"Point","coordinates":[-7.5071245168378464,37.669208191977987]},"properties":{"albufeira":"Tapada Grande","lagua":"RIBEIRA DA TAPADA GRANDE","bacia":"GUADIANA","distrito":"BEJA","concelho":"MÉRTOLA","longdd":-7.5071123230000003,"latdd":37.669222953000002,"ano_ifunc":1882,"tipo_barra":"Mistas de betão e aterro","alt_barrag":0,"supinundnp":0,"rhidro_cod":"27L/01A"}},{"type":"Feature","geometry":{"type":"Point","coordinates":[-7.4947875524605623,37.672511671427955]},"properties":{"albufeira":"Tapada Pequena","lagua":"RIBEIRA DA TAPADA GRANDE","bacia":"GUADIANA","distrito":"BEJA","concelho":"MÉRTOLA","longdd":-7.494775025,"latdd":37.672526454999996,"ano_ifunc":1884,"tipo_barra":"Terra","alt_barrag":15,"supinundnp":29,"rhidro_cod":" "}},{"type":"Feature","geometry":{"type":"Point","coordinates":[-7.3412685884912872,40.877559168472018]},"properties":{"albufeira":"Teja","lagua":"RIBEIRA DE TEJA","bacia":"DOURO","distrito":"GUARDA","concelho":"MÊDA","longdd":-7.3412611439999997,"latdd":40.877550900999992,"ano_ifunc":1995,"tipo_barra":"Terra zonada","alt_barrag":18,"supinundnp":0,"rhidro_cod":" "}},{"type":"Feature","geometry":{"type":"Point","coordinates":[-7.7518270410406087,41.285989048094535]},"properties":{"albufeira":"Terragido","lagua":"RIO CORGO","bacia":"DOURO","distrito":"VILA REAL","concelho":"VILA REAL","longdd":-7.7518188690000001,"latdd":41.28599414,"ano_ifunc":1993,"tipo_barra":"Gravidade de betão","alt_barrag":15,"supinundnp":420,"rhidro_cod":" "}},{"type":"Feature","geometry":{"type":"Point","coordinates":[-7.859549914831109,38.502393997385241]},"properties":{"albufeira":"Torres","lagua":"RIBEIRA DA AZAMBUJA","bacia":"GUADIANA","distrito":"ÉVORA","concelho":"ÉVORA","longdd":-7.8595561839999997,"latdd":38.502404675000001,"ano_ifunc":0,"tipo_barra":" ","alt_barrag":0,"supinundnp":0,"rhidro_cod":" "}},{"type":"Feature","geometry":{"type":"Point","coordinates":[-8.2613522962435706,41.097124005399735]},"properties":{"albufeira":"Torrão","lagua":"RIO TÂMEGA","bacia":"DOURO","distrito":"PORTO","concelho":"MARCO DE CANAVESES","longdd":-8.2613577670000016,"latdd":41.097129993999999,"ano_ifunc":1988,"tipo_barra":"Gravidade de betão","alt_barrag":69,"supinundnp":650,"rhidro_cod":"07H/01A"}},{"type":"Feature","geometry":{"type":"Point","coordinates":[-7.0761308428760712,39.873438009120143]},"properties":{"albufeira":"Touliça","lagua":"RIBEIRA DA TOULICA","bacia":"TEJO","distrito":"CASTELO BRANCO","concelho":"IDANHA-A-NOVA","longdd":-7.0761500359999996,"latdd":39.873413948,"ano_ifunc":1979,"tipo_barra":"Terra zonada","alt_barrag":16,"supinundnp":46.399999999999999,"rhidro_cod":"14O/01A"}},{"type":"Feature","geometry":{"type":"Point","coordinates":[-8.3537638213528354,41.812203930684113]},"properties":{"albufeira":"Touvedo","lagua":"RIO LIMA","bacia":"LIMA","distrito":"VIANA DO CASTELO","concelho":"PONTE DA BARCA","longdd":-8.35376078,"latdd":41.812232404,"ano_ifunc":1993,"tipo_barra":"Gravidade de betão aligeirada","alt_barrag":42.5,"supinundnp":172,"rhidro_cod":"03G/01A"}},{"type":"Feature","geometry":{"type":"Point","coordinates":[-8.6923489679091066,38.295820270592337]},"properties":{"albufeira":"Vale Coelheiros","lagua":"RIBEIRA DO ARROIO DA PERNADA DO MARCO (ESTEIRO NOVO)","bacia":"SADO","distrito":"SETÚBAL","concelho":"GRÂNDOLA","longdd":-8.692341239000001,"latdd":38.295829970999996,"ano_ifunc":0,"tipo_barra":" ","alt_barrag":0,"supinundnp":0,"rhidro_cod":" "}},{"type":"Feature","geometry":{"type":"Point","coordinates":[-7.015852403609137,41.26689512335723]},"properties":{"albufeira":"Vale Côvo (Salgueiral)","lagua":"RIBEIRA DAS RELVAS","bacia":"DOURO","distrito":"BRAGANÇA","concelho":"TORRE DE MONCORVO","longdd":-7.0158301289999994,"latdd":41.266891481000002,"ano_ifunc":1993,"tipo_barra":"Terra","alt_barrag":21,"supinundnp":12,"rhidro_cod":" "}},{"type":"Feature","geometry":{"type":"Point","coordinates":[-7.551845446632222,37.756693578882242]},"properties":{"albufeira":"Vale Formoso","lagua":"BARRANCO DO VALE FORMOSO","bacia":"GUADIANA","distrito":"BEJA","concelho":"MÉRTOLA","longdd":-7.5518350989999998,"latdd":37.756708717000002,"ano_ifunc":1955,"tipo_barra":"Terra","alt_barrag":6,"supinundnp":0,"rhidro_cod":" "}},{"type":"Feature","geometry":{"type":"Point","coordinates":[-8.4804695062144173,38.909950784531325]},"properties":{"albufeira":"Vale Poços","lagua":"RIBEIRA DO VALE DE POCOS","bacia":"TEJO","distrito":"SANTARÉM","concelho":"CORUCHE","longdd":-8.4804677539999993,"latdd":38.909946778999995,"ano_ifunc":0,"tipo_barra":"Terra","alt_barrag":0,"supinundnp":0,"rhidro_cod":" "}},{"type":"Feature","geometry":{"type":"Point","coordinates":[-8.6138691315765907,38.585235576697762]},"properties":{"albufeira":"Vale das Bicas","lagua":"RIBEIRA DA LANDEIRA OU ACUDE DAS BICAS OU RIBEIRA DO VALE MACANEDO","bacia":"SADO","distrito":"ÉVORA","concelho":"VENDAS NOVAS","longdd":-8.6138639619999999,"latdd":38.585240648999999,"ano_ifunc":1939,"tipo_barra":"Terra homogénea","alt_barrag":0,"supinundnp":67,"rhidro_cod":" "}},{"type":"Feature","geometry":{"type":"Point","coordinates":[-8.288087065151803,38.362867576320042]},"properties":{"albufeira":"Vale de Arca","lagua":"RIBEIRA DE ALGALÉ","bacia":"SADO","distrito":"SETÚBAL","concelho":"ALCÁCER DO SAL","longdd":-8.2880887230000013,"latdd":38.362876162999996,"ano_ifunc":0,"tipo_barra":" ","alt_barrag":0,"supinundnp":0,"rhidro_cod":" "}},{"type":"Feature","geometry":{"type":"Point","coordinates":[-8.2955100354532103,38.248094957256143]},"properties":{"albufeira":"Vale do Gaio","lagua":"RIBEIRA DO XARRAMA","bacia":"SADO","distrito":"SETÚBAL","concelho":"ALCÁCER DO SAL","longdd":-8.2955039230000001,"latdd":38.248107711999999,"ano_ifunc":1949,"tipo_barra":"Enrocamento","alt_barrag":51,"supinundnp":550,"rhidro_cod":"24H/01A"}},{"type":"Feature","geometry":{"type":"Point","coordinates":[-7.5885416805835249,40.399621437241464]},"properties":{"albufeira":"Vale do Rossim","lagua":"RIO ALVA OU RIBEIRA DA FERVENÇA","bacia":"MONDEGO","distrito":"GUARDA","concelho":"GOUVEIA","longdd":-7.5885445540000003,"latdd":40.399609228000003,"ano_ifunc":1956,"tipo_barra":"Gravidade de betão","alt_barrag":27,"supinundnp":37,"rhidro_cod":"11L/02AE"}},{"type":"Feature","geometry":{"type":"Point","coordinates":[-7.3750827461654156,41.16029955513492]},"properties":{"albufeira":"Valeira","lagua":"RIO DOURO","bacia":"DOURO","distrito":"VISEU","concelho":"SÃO JOÃO DA PESQUEIRA","longdd":-7.3750663799999998,"latdd":41.160299006000002,"ano_ifunc":1975,"tipo_barra":"Gravidade de betão","alt_barrag":48,"supinundnp":795,"rhidro_cod":"07M/02A"}},{"type":"Feature","geometry":{"type":"Point","coordinates":[-7.2590877616562075,41.569381629924045]},"properties":{"albufeira":"Valpaços","lagua":"RIO RABAÇAL","bacia":"DOURO","distrito":"BRAGANÇA","concelho":"MIRANDELA","longdd":-7.2590606450000008,"latdd":41.569384920999994,"ano_ifunc":0,"tipo_barra":" ","alt_barrag":0,"supinundnp":0,"rhidro_cod":" "}},{"type":"Feature","geometry":{"type":"Point","coordinates":[-7.7756070318029753,41.120418614686464]},"properties":{"albufeira":"Varosa","lagua":"RIO VAROSA","bacia":"DOURO","distrito":"VISEU","concelho":"LAMEGO","longdd":-7.7756031600000002,"latdd":41.120420652,"ano_ifunc":1934,"tipo_barra":"Arco Abóboda","alt_barrag":0,"supinundnp":70,"rhidro_cod":"07K/02AE"}},{"type":"Feature","geometry":{"type":"Point","coordinates":[-6.8042378006200668,41.953822338060505]},"properties":{"albufeira":"Veiguinhas","lagua":"RIO SABOR","bacia":"DOURO","distrito":"BRAGANÇA","concelho":"BRAGANÇA","longdd":-6.8041941020000003,"latdd":41.953825808000005,"ano_ifunc":0,"tipo_barra":"Gravidade de betão","alt_barrag":35,"supinundnp":0,"rhidro_cod":" "}},{"type":"Feature","geometry":{"type":"Point","coordinates":[-7.9847857682264598,41.681207276976885]},"properties":{"albufeira":"Venda Nova (Rabagão)","lagua":"RIO RABAGÃO","bacia":"CÁVADO/RIBEIRAS COSTEIRAS","distrito":"BRAGA","concelho":"VIEIRA DO MINHO","longdd":-7.9847736170000001,"latdd":41.681225972999997,"ano_ifunc":1951,"tipo_barra":"Gravidade de betão","alt_barrag":97,"supinundnp":400,"rhidro_cod":"03J/04A"}},{"type":"Feature","geometry":{"type":"Point","coordinates":[-8.5563618751130122,38.517523864041834]},"properties":{"albufeira":"Venda Nova (Sado)","lagua":"RIBEIRA DO VALE DO ENXOFRAL","bacia":"SADO","distrito":"SETÚBAL","concelho":"ALCÁCER DO SAL","longdd":-8.5563572970000017,"latdd":38.517531587999997,"ano_ifunc":0,"tipo_barra":" ","alt_barrag":0,"supinundnp":0,"rhidro_cod":" "}},{"type":"Feature","geometry":{"type":"Point","coordinates":[-8.8359241540452729,38.690745507914095]},"properties":{"albufeira":"Venda Velha","lagua":"VALA DA ASSEICEIRA","bacia":"TEJO","distrito":"SETÚBAL","concelho":"ALCOCHETE","longdd":-8.8359151899999997,"latdd":38.690745159999999,"ano_ifunc":1957,"tipo_barra":"Terra homogénea","alt_barrag":0,"supinundnp":115,"rhidro_cod":" "}},{"type":"Feature","geometry":{"type":"Point","coordinates":[-7.6070659024918896,38.538086561310948]},"properties":{"albufeira":"Vigia","lagua":"RIBEIRA DO VALE DO VASCO","bacia":"GUADIANA","distrito":"ÉVORA","concelho":"REDONDO","longdd":-7.6070826690000004,"latdd":38.538099702999993,"ano_ifunc":1981,"tipo_barra":"Terra zonada","alt_barrag":30,"supinundnp":262,"rhidro_cod":"22L/01A"}},{"type":"Feature","geometry":{"type":"Point","coordinates":[-7.7123002439135915,41.34439451936268]},"properties":{"albufeira":"Vila Seca","lagua":"RIO CORGO","bacia":"DOURO","distrito":"VILA REAL","concelho":"VILA REAL","longdd":-7.712289996,"latdd":41.344400544999999,"ano_ifunc":0,"tipo_barra":"Enrocamento","alt_barrag":69,"supinundnp":0,"rhidro_cod":" "}},{"type":"Feature","geometry":{"type":"Point","coordinates":[-7.5348402650609554,40.98719737754751]},"properties":{"albufeira":"Vilar-Tabuaço","lagua":"RIO TÁVORA","bacia":"DOURO","distrito":"VISEU","concelho":"SERNANCELHE","longdd":-7.5348338840000002,"latdd":40.987194174999992,"ano_ifunc":1965,"tipo_barra":"Enrocamento com cortina a montante","alt_barrag":58,"supinundnp":670,"rhidro_cod":"08L/01A"}},{"type":"Feature","geometry":{"type":"Point","coordinates":[-8.2097895651340043,41.763407838290966]},"properties":{"albufeira":"Vilarinho das Furnas","lagua":"RIO HOMEM","bacia":"CÁVADO/RIBEIRAS COSTEIRAS","distrito":"BRAGA","concelho":"TERRAS DE BOURO","longdd":-8.2097827240000001,"latdd":41.763432699999996,"ano_ifunc":1972,"tipo_barra":"Abóboda","alt_barrag":94,"supinundnp":346,"rhidro_cod":"03H/01A"}},{"type":"Feature","geometry":{"type":"Point","coordinates":[-7.9652568849364931,39.179537263542585]},"properties":{"albufeira":"Vinhas","lagua":"RIBEIRA DAS VINHAS","bacia":"TEJO","distrito":"PORTALEGRE","concelho":"PONTE DE SOR","longdd":-7.965267936,"latdd":39.179527157999999,"ano_ifunc":0,"tipo_barra":" ","alt_barrag":0,"supinundnp":0,"rhidro_cod":" "}}]}